"zip_code","latitude","longitude","city","state","county"
"00501",40.922326,-72.637078,"Holtsville","NY","Suffolk"
"00544",40.922326,-72.637078,"Holtsville","NY","Suffolk"
"06390",40.992288,-72.723496,"Fishers Island","NY","Suffolk"
"10001",40.750422,-73.996328,"New York","NY","New York"
"10002",40.718758,-73.986427,"New York","NY","New York"
"10003",40.730223,-73.988564,"New York","NY","New York"
"10004",40.696355,-74.025276,"New York","NY","New York"
"10005",40.706903,-74.008654,"New York","NY","New York"
"10006",40.708834,-74.013168,"New York","NY","New York"
"10007",40.713941,-74.007401,"New York","NY","New York"
"10008",40.780751,-73.977182,"New York","NY","New York"
"10009",40.72775,-73.980396,"New York","NY","New York"
"10010",40.739024,-73.983542,"New York","NY","New York"
"10011",40.740916,-73.999769,"New York","NY","New York"
"10012",40.729124,-73.991582,"New York","NY","New York"
"10013",40.722105,-74.003497,"New York","NY","New York"
"10014",40.738088,-74.005095,"New York","NY","New York"
"10015",40.780751,-73.977182,"New York","NY","New York"
"10016",40.745527,-73.978449,"New York","NY","New York"
"10017",40.752955,-73.973196,"New York","NY","New York"
"10018",40.755332,-73.993172,"New York","NY","New York"
"10019",40.765926,-73.985443,"New York","NY","New York"
"10020",40.735449,-73.996788,"New York","NY","New York"
"10021",40.768823,-73.960257,"New York","NY","New York"
"10022",40.758775,-73.967842,"New York","NY","New York"
"10023",40.776765,-73.982213,"New York","NY","New York"
"10024",40.80813,-73.965653,"New York","NY","New York"
"10025",40.798664,-73.967778,"New York","NY","New York"
"10026",40.802918,-73.953107,"New York","NY","New York"
"10027",40.812242,-73.9532,"New York","NY","New York"
"10028",40.776629,-73.953914,"New York","NY","New York"
"10029",40.791884,-73.943517,"New York","NY","New York"
"10030",40.818474,-73.94329,"New York","NY","New York"
"10031",40.823438,-73.949039,"New York","NY","New York"
"10032",40.839137,-73.942181,"New York","NY","New York"
"10033",40.851293,-73.934764,"New York","NY","New York"
"10034",40.863194,-73.926959,"New York","NY","New York"
"10035",40.801913,-73.9347,"New York","NY","New York"
"10036",40.75953,-73.989847,"New York","NY","New York"
"10037",40.813884,-73.938498,"New York","NY","New York"
"10038",40.710223,-74.003368,"New York","NY","New York"
"10039",40.826736,-73.939398,"New York","NY","New York"
"10040",40.858692,-73.930999,"New York","NY","New York"
"10041",40.703801,-74.009814,"New York","NY","New York"
"10043",40.780751,-73.977182,"New York","NY","New York"
"10044",40.761812,-73.950521,"New York","NY","New York"
"10045",40.70859,-74.008687,"New York","NY","New York"
"10046",40.780751,-73.977182,"New York","NY","New York"
"10047",40.780751,-73.977182,"New York","NY","New York"
"10048",40.71254,-74.013289,"New York","NY","New York"
"10055",40.780751,-73.977182,"New York","NY","New York"
"10060",40.780751,-73.977182,"New York","NY","New York"
"10069",40.777952,-73.988381,"New York","NY","New York"
"10072",40.780751,-73.977182,"New York","NY","New York"
"10079",40.780751,-73.977182,"New York","NY","New York"
"10080",40.780751,-73.977182,"New York","NY","New York"
"10081",40.780751,-73.977182,"New York","NY","New York"
"10082",40.780751,-73.977182,"New York","NY","New York"
"10087",40.780751,-73.977182,"New York","NY","New York"
"10090",40.780751,-73.977182,"New York","NY","New York"
"10094",40.780751,-73.977182,"New York","NY","New York"
"10095",40.748181,-73.988421,"New York","NY","New York"
"10096",40.780751,-73.977182,"New York","NY","New York"
"10098",40.748181,-73.988421,"New York","NY","New York"
"10099",40.780751,-73.977182,"New York","NY","New York"
"10101",40.780751,-73.977182,"New York","NY","New York"
"10102",40.780751,-73.977182,"New York","NY","New York"
"10103",40.760264,-73.97624,"New York","NY","New York"
"10104",40.760943,-73.979908,"New York","NY","New York"
"10105",40.762808,-73.978534,"New York","NY","New York"
"10106",40.765243,-73.980438,"New York","NY","New York"
"10107",40.766429,-73.982728,"New York","NY","New York"
"10108",40.780751,-73.977182,"New York","NY","New York"
"10109",40.780751,-73.977182,"New York","NY","New York"
"10110",40.753987,-73.980811,"New York","NY","New York"
"10111",40.759224,-73.977762,"New York","NY","New York"
"10112",40.759287,-73.979808,"New York","NY","New York"
"10113",40.780751,-73.977182,"New York","NY","New York"
"10114",40.780751,-73.977182,"New York","NY","New York"
"10115",40.811115,-73.96423,"New York","NY","New York"
"10116",40.780751,-73.977182,"New York","NY","New York"
"10117",40.780751,-73.977182,"New York","NY","New York"
"10118",40.748998,-73.986467,"New York","NY","New York"
"10119",40.780751,-73.977182,"New York","NY","New York"
"10120",40.750629,-73.989426,"New York","NY","New York"
"10121",40.74964,-73.991889,"New York","NY","New York"
"10122",40.751757,-73.992171,"New York","NY","New York"
"10123",40.751489,-73.990537,"New York","NY","New York"
"10124",40.780751,-73.977182,"New York","NY","New York"
"10125",40.780751,-73.977182,"New York","NY","New York"
"10126",40.780751,-73.977182,"New York","NY","New York"
"10128",40.780989,-73.95158,"New York","NY","New York"
"10129",40.780751,-73.977182,"New York","NY","New York"
"10130",40.780751,-73.977182,"New York","NY","New York"
"10131",40.780751,-73.977182,"New York","NY","New York"
"10132",40.780751,-73.977182,"New York","NY","New York"
"10133",40.780751,-73.977182,"New York","NY","New York"
"10138",40.780751,-73.977182,"New York","NY","New York"
"10149",40.780751,-73.977182,"New York","NY","New York"
"10150",40.780751,-73.977182,"New York","NY","New York"
"10151",40.763419,-73.973971,"New York","NY","New York"
"10152",40.758937,-73.97302,"New York","NY","New York"
"10153",40.764068,-73.97348,"New York","NY","New York"
"10154",40.758304,-73.973468,"New York","NY","New York"
"10155",40.761104,-73.968036,"New York","NY","New York"
"10156",40.780751,-73.977182,"New York","NY","New York"
"10157",40.780751,-73.977182,"New York","NY","New York"
"10158",40.749435,-73.9758,"New York","NY","New York"
"10159",40.780751,-73.977182,"New York","NY","New York"
"10160",40.780751,-73.977182,"New York","NY","New York"
"10161",40.780751,-73.977182,"New York","NY","New York"
"10162",40.769945,-73.951117,"New York","NY","New York"
"10163",40.780751,-73.977182,"New York","NY","New York"
"10164",40.780751,-73.977182,"New York","NY","New York"
"10165",40.752351,-73.979132,"New York","NY","New York"
"10166",40.754591,-73.976238,"New York","NY","New York"
"10167",40.754858,-73.97497,"New York","NY","New York"
"10168",40.751933,-73.976794,"New York","NY","New York"
"10169",40.75474,-73.976595,"New York","NY","New York"
"10170",40.752621,-73.97548,"New York","NY","New York"
"10171",40.756447,-73.974821,"New York","NY","New York"
"10172",40.755839,-73.975279,"New York","NY","New York"
"10173",40.754305,-73.979564,"New York","NY","New York"
"10174",40.751656,-73.97516,"New York","NY","New York"
"10175",40.754305,-73.979782,"New York","NY","New York"
"10176",40.75557,-73.978877,"New York","NY","New York"
"10177",40.755332,-73.976082,"New York","NY","New York"
"10178",40.751378,-73.978507,"New York","NY","New York"
"10179",40.780751,-73.977182,"New York","NY","New York"
"10184",40.780751,-73.977182,"New York","NY","New York"
"10185",40.780751,-73.977182,"New York","NY","New York"
"10196",40.780751,-73.977182,"New York","NY","New York"
"10197",40.780751,-73.977182,"New York","NY","New York"
"10199",40.750308,-74.00058,"New York","NY","New York"
"10203",40.780751,-73.977182,"New York","NY","New York"
"10211",40.780751,-73.977182,"New York","NY","New York"
"10212",40.780751,-73.977182,"New York","NY","New York"
"10213",40.780751,-73.977182,"New York","NY","New York"
"10242",40.780751,-73.977182,"New York","NY","New York"
"10249",40.780751,-73.977182,"New York","NY","New York"
"10256",40.780751,-73.977182,"New York","NY","New York"
"10257",40.780751,-73.977182,"New York","NY","New York"
"10258",40.780751,-73.977182,"New York","NY","New York"
"10259",40.780751,-73.977182,"New York","NY","New York"
"10260",40.780751,-73.977182,"New York","NY","New York"
"10261",40.780751,-73.977182,"New York","NY","New York"
"10265",40.780751,-73.977182,"New York","NY","New York"
"10268",40.780751,-73.977182,"New York","NY","New York"
"10269",40.780751,-73.977182,"New York","NY","New York"
"10270",40.706925,-74.008154,"New York","NY","New York"
"10271",40.708918,-74.011066,"New York","NY","New York"
"10272",40.780751,-73.977182,"New York","NY","New York"
"10273",40.780751,-73.977182,"New York","NY","New York"
"10274",40.780751,-73.977182,"New York","NY","New York"
"10275",40.780751,-73.977182,"New York","NY","New York"
"10276",40.780751,-73.977182,"New York","NY","New York"
"10277",40.780751,-73.977182,"New York","NY","New York"
"10278",40.780751,-73.977182,"New York","NY","New York"
"10279",40.712697,-74.007812,"New York","NY","New York"
"10280",40.708857,-74.016217,"New York","NY","New York"
"10281",40.714643,-74.014958,"New York","NY","New York"
"10282",40.716597,-74.01459,"New York","NY","New York"
"10285",40.71533,-74.016306,"New York","NY","New York"
"10286",40.714231,-74.011895,"New York","NY","New York"
"10292",40.780751,-73.977182,"New York","NY","New York"
"10301",40.623632,-74.093323,"Staten Island","NY","Richmond"
"10302",40.628923,-74.137947,"Staten Island","NY","Richmond"
"10303",40.631697,-74.165016,"Staten Island","NY","Richmond"
"10304",40.608389,-74.093684,"Staten Island","NY","Richmond"
"10305",40.596828,-74.077837,"Staten Island","NY","Richmond"
"10306",40.559668,-74.12241,"Staten Island","NY","Richmond"
"10307",40.510723,-74.24194,"Staten Island","NY","Richmond"
"10308",40.551191,-74.148893,"Staten Island","NY","Richmond"
"10309",40.531767,-74.218779,"Staten Island","NY","Richmond"
"10310",40.632943,-74.118669,"Staten Island","NY","Richmond"
"10311",40.605245,-74.179485,"Staten Island","NY","Richmond"
"10312",40.545163,-74.174692,"Staten Island","NY","Richmond"
"10313",40.564393,-74.146836,"Staten Island","NY","Richmond"
"10314",40.591006,-74.150741,"Staten Island","NY","Richmond"
"10451",40.819329,-73.920355,"Bronx","NY","Bronx"
"10452",40.838729,-73.921605,"Bronx","NY","Bronx"
"10453",40.852728,-73.912455,"Bronx","NY","Bronx"
"10454",40.807129,-73.918405,"Bronx","NY","Bronx"
"10455",40.815029,-73.908355,"Bronx","NY","Bronx"
"10456",40.830529,-73.908655,"Bronx","NY","Bronx"
"10457",40.846129,-73.898255,"Bronx","NY","Bronx"
"10458",40.864728,-73.889855,"Bronx","NY","Bronx"
"10459",40.825629,-73.893605,"Bronx","NY","Bronx"
"10460",40.841829,-73.879004,"Bronx","NY","Bronx"
"10461",40.845279,-73.843103,"Bronx","NY","Bronx"
"10462",40.842729,-73.854703,"Bronx","NY","Bronx"
"10463",40.879528,-73.904355,"Bronx","NY","Bronx"
"10464",40.863028,-73.799802,"Bronx","NY","Bronx"
"10465",40.826879,-73.825153,"Bronx","NY","Bronx"
"10466",40.859878,-73.841003,"Bronx","NY","Bronx"
"10467",40.876328,-73.870404,"Bronx","NY","Bronx"
"10468",40.870978,-73.900505,"Bronx","NY","Bronx"
"10469",40.869978,-73.844903,"Bronx","NY","Bronx"
"10470",40.87143,-73.862303,"Bronx","NY","Bronx"
"10471",40.899178,-73.898677,"Bronx","NY","Bronx"
"10472",40.829529,-73.865704,"Bronx","NY","Bronx"
"10473",40.816229,-73.860304,"Bronx","NY","Bronx"
"10474",40.813929,-73.884104,"Bronx","NY","Bronx"
"10475",40.874878,-73.827653,"Bronx","NY","Bronx"
"10499",40.851549,-73.840908,"Bronx","NY","Bronx"
"10501",41.293169,-73.759033,"Amawalk","NY","Westchester"
"10502",41.015096,-73.841478,"Ardsley","NY","Westchester"
"10503",41.025947,-73.87185,"Ardsley On Hudson","NY","Westchester"
"10504",41.075185,-73.761247,"Armonk","NY","Westchester"
"10505",41.33431,-73.749244,"Baldwin Place","NY","Westchester"
"10506",41.123741,-73.718481,"Bedford","NY","Westchester"
"10507",41.229037,-73.697998,"Bedford Hills","NY","Westchester"
"10509",41.415979,-73.725197,"Brewster","NY","Putnam"
"10510",41.05978,-73.829802,"Briarcliff Manor","NY","Westchester"
"10511",41.259961,-73.943495,"Buchanan","NY","Westchester"
"10512",41.429571,-73.777626,"Carmel","NY","Putnam"
"10514",41.078957,-73.775547,"Chappaqua","NY","Westchester"
"10516",41.455213,-73.812479,"Cold Spring","NY","Putnam"
"10517",41.300561,-73.861217,"Crompond","NY","Westchester"
"10518",41.269896,-73.612074,"Cross River","NY","Westchester"
"10519",41.347727,-73.661014,"Croton Falls","NY","Westchester"
"10520",41.122622,-73.867258,"Croton On Hudson","NY","Westchester"
"10521",41.234256,-73.926165,"Croton On Hudson","NY","Westchester"
"10522",41.011147,-73.865178,"Dobbs Ferry","NY","Westchester"
"10523",41.058732,-73.836784,"Elmsford","NY","Westchester"
"10524",41.375016,-73.931844,"Garrison","NY","Putnam"
"10526",41.300361,-73.647891,"Goldens Bridge","NY","Westchester"
"10527",41.323246,-73.757911,"Granite Springs","NY","Westchester"
"10528",40.979118,-73.723036,"Harrison","NY","Westchester"
"10530",41.019105,-73.812077,"Hartsdale","NY","Westchester"
"10532",41.013742,-73.835421,"Hawthorne","NY","Westchester"
"10533",41.079553,-73.856051,"Irvington","NY","Westchester"
"10535",41.338568,-73.735548,"Jefferson Valley","NY","Westchester"
"10536",41.271614,-73.687334,"Katonah","NY","Westchester"
"10537",41.394819,-73.718016,"Lake Peekskill","NY","Putnam"
"10538",41.090197,-73.755284,"Larchmont","NY","Westchester"
"10540",41.333398,-73.724257,"Lincolndale","NY","Westchester"
"10541",41.412395,-73.752059,"Mahopac","NY","Putnam"
"10542",41.372581,-73.760132,"Mahopac Falls","NY","Putnam"
"10543",40.949199,-73.738779,"Mamaroneck","NY","Westchester"
"10545",41.119008,-73.732996,"Maryknoll","NY","Westchester"
"10546",41.201373,-73.796456,"Millwood","NY","Westchester"
"10547",41.281975,-73.797555,"Mohegan Lake","NY","Westchester"
"10548",41.25126,-73.942877,"Montrose","NY","Westchester"
"10549",41.197329,-73.72286,"Mount Kisco","NY","Westchester"
"10550",40.909838,-73.83389,"Mount Vernon","NY","Westchester"
"10551",41.119008,-73.732996,"Mount Vernon","NY","Westchester"
"10552",41.011586,-73.798391,"Mount Vernon","NY","Westchester"
"10553",40.909449,-73.822109,"Mount Vernon","NY","Westchester"
"10557",41.119008,-73.732996,"Mount Vernon","NY","Westchester"
"10558",41.119008,-73.732996,"Mount Vernon","NY","Westchester"
"10559",41.119008,-73.732996,"Mount Vernon","NY","Westchester"
"10560",41.331814,-73.608451,"North Salem","NY","Westchester"
"10562",41.109701,-73.827995,"Ossining","NY","Westchester"
"10566",41.28383,-73.893116,"Peekskill","NY","Westchester"
"10567",41.284044,-73.893116,"Cortlandt Manor","NY","Westchester"
"10570",41.131069,-73.792214,"Pleasantville","NY","Westchester"
"10571",41.119008,-73.732996,"Pleasantville","NY","Westchester"
"10572",41.119008,-73.732996,"Pleasantville","NY","Westchester"
"10573",41.022193,-73.679799,"Port Chester","NY","Westchester"
"10576",41.208519,-73.568126,"Pound Ridge","NY","Westchester"
"10577",41.002757,-73.751025,"Purchase","NY","Westchester"
"10578",41.315779,-73.645145,"Purdys","NY","Westchester"
"10579",41.399262,-73.776871,"Putnam Valley","NY","Putnam"
"10580",40.955237,-73.744725,"Rye","NY","Westchester"
"10581",41.119008,-73.732996,"Rye","NY","Westchester"
"10583",40.992686,-73.799476,"Scarsdale","NY","Westchester"
"10587",41.328737,-73.742268,"Shenorock","NY","Westchester"
"10588",41.330892,-73.823549,"Shrub Oak","NY","Westchester"
"10589",41.326544,-73.693685,"Somers","NY","Westchester"
"10590",41.254331,-73.542714,"South Salem","NY","Westchester"
"10591",41.089703,-73.844034,"Tarrytown","NY","Westchester"
"10592",41.119008,-73.732996,"Tarrytown","NY","Westchester"
"10594",41.117214,-73.771469,"Thornwood","NY","Westchester"
"10595",41.090218,-73.784768,"Valhalla","NY","Westchester"
"10596",41.254823,-73.958727,"Verplanck","NY","Westchester"
"10597",41.297198,-73.597979,"Waccabuc","NY","Westchester"
"10598",41.287329,-73.790284,"Yorktown Heights","NY","Westchester"
"10601",41.031397,-73.769626,"White Plains","NY","Westchester"
"10602",41.119008,-73.732996,"White Plains","NY","Westchester"
"10603",41.048958,-73.783036,"White Plains","NY","Westchester"
"10604",41.156215,-73.805176,"West Harrison","NY","Westchester"
"10605",41.007597,-73.748575,"White Plains","NY","Westchester"
"10606",41.021686,-73.766044,"White Plains","NY","Westchester"
"10607",41.039235,-73.807293,"White Plains","NY","Westchester"
"10610",41.119008,-73.732996,"White Plains","NY","Westchester"
"10625",41.119008,-73.732996,"White Plains","NY","Westchester"
"10629",41.119008,-73.732996,"White Plains","NY","Westchester"
"10633",41.119008,-73.732996,"White Plains","NY","Westchester"
"10650",41.013696,-73.705975,"White Plains","NY","Westchester"
"10701",40.946107,-73.866926,"Yonkers","NY","Westchester"
"10702",41.119008,-73.732996,"Yonkers","NY","Westchester"
"10703",40.959347,-73.881329,"Yonkers","NY","Westchester"
"10704",40.922938,-73.861941,"Yonkers","NY","Westchester"
"10705",40.926538,-73.872529,"Yonkers","NY","Westchester"
"10706",40.987797,-73.862969,"Hastings On Hudson","NY","Westchester"
"10707",40.960498,-73.816127,"Tuckahoe","NY","Westchester"
"10708",40.938448,-73.829978,"Bronxville","NY","Westchester"
"10709",40.956098,-73.812177,"Eastchester","NY","Westchester"
"10710",40.967946,-73.84736,"Yonkers","NY","Westchester"
"10801",41.035123,-73.801401,"New Rochelle","NY","Westchester"
"10802",40.948274,-73.795361,"New Rochelle","NY","Westchester"
"10803",40.904538,-73.806277,"Pelham","NY","Westchester"
"10804",40.951498,-73.786526,"New Rochelle","NY","Westchester"
"10805",40.899599,-73.780976,"New Rochelle","NY","Westchester"
"10901",41.137295,-74.105737,"Suffern","NY","Rockland"
"10910",41.386195,-74.125718,"Arden","NY","Orange"
"10911",41.160945,-74.060826,"Bear Mountain","NY","Rockland"
"10912",41.387822,-74.354699,"Bellvale","NY","Orange"
"10913",41.068782,-73.957282,"Blauvelt","NY","Rockland"
"10914",41.464867,-74.255646,"Blooming Grove","NY","Orange"
"10915",41.555634,-74.328805,"Bullville","NY","Orange"
"10916",41.443168,-74.258172,"Campbell Hall","NY","Orange"
"10917",41.329224,-74.121764,"Central Valley","NY","Orange"
"10918",41.414188,-74.348151,"Chester","NY","Orange"
"10919",41.53156,-74.370569,"Circleville","NY","Orange"
"10920",41.152545,-73.936305,"Congers","NY","Rockland"
"10921",41.319956,-74.36699,"Florida","NY","Orange"
"10922",41.334557,-73.99175,"Fort Montgomery","NY","Orange"
"10923",41.203984,-74.003167,"Garnerville","NY","Rockland"
"10924",41.357428,-74.210608,"Goshen","NY","Orange"
"10925",41.297325,-74.26484,"Greenwood Lake","NY","Orange"
"10926",41.300486,-74.124934,"Harriman","NY","Orange"
"10927",41.191694,-73.964933,"Haverstraw","NY","Rockland"
"10928",41.398883,-74.255846,"Highland Falls","NY","Orange"
"10930",41.372924,-74.245108,"Highland Mills","NY","Orange"
"10931",41.120195,-74.170639,"Hillburn","NY","Rockland"
"10932",41.485227,-74.484249,"Howells","NY","Orange"
"10933",41.365286,-74.510918,"Johnson","NY","Orange"
"10940",41.390109,-74.340401,"Middletown","NY","Orange"
"10941",41.370586,-74.354017,"Middletown","NY","Orange"
"10943",41.387822,-74.354699,"Middletown","NY","Orange"
"10950",41.343092,-74.316824,"Monroe","NY","Orange"
"10952",41.118595,-74.084536,"Monsey","NY","Rockland"
"10953",41.409284,-74.083045,"Mountainville","NY","Orange"
"10954",41.097716,-74.010934,"Nanuet","NY","Rockland"
"10956",41.149494,-73.98827,"New City","NY","Rockland"
"10958",41.375634,-74.43375,"New Hampton","NY","Orange"
"10959",41.387822,-74.354699,"New Milford","NY","Orange"
"10960",41.080474,-73.930179,"Nyack","NY","Rockland"
"10962",41.057496,-73.953181,"Orangeburg","NY","Rockland"
"10963",41.401702,-74.536702,"Otisville","NY","Orange"
"10964",41.008947,-73.92093,"Palisades","NY","Rockland"
"10965",41.061476,-74.018283,"Pearl River","NY","Rockland"
"10968",41.040946,-73.918205,"Piermont","NY","Rockland"
"10969",41.325856,-74.488954,"Pine Island","NY","Orange"
"10970",41.18416,-74.045358,"Pomona","NY","Rockland"
"10973",41.386099,-74.480395,"Slate Hill","NY","Orange"
"10974",41.157473,-74.200784,"Sloatsburg","NY","Rockland"
"10975",41.332379,-74.113857,"Southfields","NY","Orange"
"10976",41.083784,-74.061335,"Sparkill","NY","Rockland"
"10977",41.115833,-74.047384,"Spring Valley","NY","Rockland"
"10979",41.182344,-74.318354,"Sterling Forest","NY","Orange"
"10980",41.235675,-74.028095,"Stony Point","NY","Rockland"
"10981",41.323172,-74.288565,"Sugar Loaf","NY","Orange"
"10982",41.160945,-74.060826,"Tallman","NY","Rockland"
"10983",41.027646,-73.948404,"Tappan","NY","Rockland"
"10984",41.206898,-74.015411,"Thiells","NY","Rockland"
"10985",41.574986,-74.322534,"Thompson Ridge","NY","Orange"
"10986",41.265953,-73.982912,"Tomkins Cove","NY","Rockland"
"10987",41.28142,-74.204924,"Tuxedo Park","NY","Orange"
"10988",41.314931,-74.550346,"Unionville","NY","Orange"
"10989",41.122868,-73.934844,"Valley Cottage","NY","Rockland"
"10990",41.350681,-74.32116,"Warwick","NY","Orange"
"10992",41.407974,-74.345433,"Washingtonville","NY","Orange"
"10993",41.208044,-73.975833,"West Haverstraw","NY","Rockland"
"10994",41.100622,-73.970482,"West Nyack","NY","Rockland"
"10995",41.160945,-74.060826,"West Nyack","NY","Rockland"
"10996",41.36471,-73.998375,"West Point","NY","Orange"
"10997",41.387822,-74.354699,"West Point","NY","Orange"
"10998",41.331044,-74.456673,"Westtown","NY","Orange"
"11001",40.720051,-73.706783,"Floral Park","NY","Nassau"
"11002",40.754757,-73.601772,"Floral Park","NY","Nassau"
"11003",40.697558,-73.704946,"Elmont","NY","Nassau"
"11004",40.745263,-73.711159,"Glen Oaks","NY","Queens"
"11005",40.757057,-73.7182,"Floral Park","NY","Queens"
"11010",40.700101,-73.674074,"Franklin Square","NY","Nassau"
"11020",40.754757,-73.601772,"Great Neck","NY","Nassau"
"11021",40.754757,-73.601772,"Great Neck","NY","Nassau"
"11022",40.754757,-73.601772,"Great Neck","NY","Nassau"
"11023",40.754757,-73.601772,"Great Neck","NY","Nassau"
"11024",40.754757,-73.601772,"Great Neck","NY","Nassau"
"11025",40.754757,-73.601772,"Great Neck","NY","Nassau"
"11026",40.754757,-73.601772,"Great Neck","NY","Nassau"
"11027",40.754757,-73.601772,"Great Neck","NY","Nassau"
"11030",40.754757,-73.601772,"Manhasset","NY","Nassau"
"11040",40.729351,-73.682824,"New Hyde Park","NY","Nassau"
"11041",40.754757,-73.601772,"New Hyde Park","NY","Nassau"
"11042",40.754757,-73.601772,"New Hyde Park","NY","Nassau"
"11043",40.754757,-73.601772,"New Hyde Park","NY","Nassau"
"11044",40.754757,-73.601772,"New Hyde Park","NY","Nassau"
"11050",40.754757,-73.601772,"Port Washington","NY","Nassau"
"11051",40.754757,-73.601772,"Port Washington","NY","Nassau"
"11052",40.754757,-73.601772,"Port Washington","NY","Nassau"
"11053",40.754757,-73.601772,"Port Washington","NY","Nassau"
"11054",40.754757,-73.601772,"Port Washington","NY","Nassau"
"11055",40.754757,-73.601772,"Port Washington","NY","Nassau"
"11096",40.620492,-73.747376,"Inwood","NY","Nassau"
"11099",40.754757,-73.601772,"New Hyde Park","NY","Nassau"
"11101",40.744622,-73.934502,"Long Island City","NY","Queens"
"11102",40.770808,-73.92516,"Astoria","NY","Queens"
"11103",40.761884,-73.911642,"Astoria","NY","Queens"
"11104",40.742794,-73.918216,"Sunnyside","NY","Queens"
"11105",40.776468,-73.908761,"Astoria","NY","Queens"
"11106",40.760601,-73.930984,"Astoria","NY","Queens"
"11109",40.651378,-73.870779,"Long Island City","NY","Queens"
"11120",40.651378,-73.870779,"Long Island City","NY","Queens"
"11201",40.694481,-73.989319,"Brooklyn","NY","Kings"
"11202",40.645099,-73.945032,"Brooklyn","NY","Kings"
"11203",40.663551,-73.949389,"Brooklyn","NY","Kings"
"11204",40.603838,-73.987635,"Brooklyn","NY","Kings"
"11205",40.682507,-73.936274,"Brooklyn","NY","Kings"
"11206",40.700453,-73.949255,"Brooklyn","NY","Kings"
"11207",40.670925,-73.895216,"Brooklyn","NY","Kings"
"11208",40.662195,-73.912945,"Brooklyn","NY","Kings"
"11209",40.622459,-74.028749,"Brooklyn","NY","Kings"
"11210",40.625468,-73.945521,"Brooklyn","NY","Kings"
"11211",40.707789,-73.945344,"Brooklyn","NY","Kings"
"11212",40.663845,-73.916406,"Brooklyn","NY","Kings"
"11213",40.67317,-73.936055,"Brooklyn","NY","Kings"
"11214",40.599523,-73.998594,"Brooklyn","NY","Kings"
"11215",40.664322,-73.984132,"Brooklyn","NY","Kings"
"11216",40.680474,-73.946829,"Brooklyn","NY","Kings"
"11217",40.684948,-73.980613,"Brooklyn","NY","Kings"
"11218",40.64434,-73.978411,"Brooklyn","NY","Kings"
"11219",40.633157,-73.996953,"Brooklyn","NY","Kings"
"11220",40.634873,-74.016905,"Brooklyn","NY","Kings"
"11221",40.700418,-73.936764,"Brooklyn","NY","Kings"
"11222",40.728388,-73.945754,"Brooklyn","NY","Kings"
"11223",40.633801,-73.954405,"Brooklyn","NY","Kings"
"11224",40.635444,-73.968536,"Brooklyn","NY","Kings"
"11225",40.661096,-73.952295,"Brooklyn","NY","Kings"
"11226",40.644962,-73.956304,"Brooklyn","NY","Kings"
"11228",40.624552,-73.989853,"Brooklyn","NY","Kings"
"11229",40.600988,-73.939998,"Brooklyn","NY","Kings"
"11230",40.62251,-73.966109,"Brooklyn","NY","Kings"
"11231",40.676521,-74.003322,"Brooklyn","NY","Kings"
"11232",40.671186,-73.971708,"Brooklyn","NY","Kings"
"11233",40.682088,-73.920638,"Brooklyn","NY","Kings"
"11234",40.610947,-73.913892,"Brooklyn","NY","Kings"
"11235",40.584455,-73.948402,"Brooklyn","NY","Kings"
"11236",40.65701,-73.91581,"Brooklyn","NY","Kings"
"11237",40.702192,-73.91807,"Brooklyn","NY","Kings"
"11238",40.680593,-73.963928,"Brooklyn","NY","Kings"
"11239",40.649207,-73.876754,"Brooklyn","NY","Kings"
"11240",40.645099,-73.945032,"Brooklyn","NY","Kings"
"11241",40.645099,-73.945032,"Brooklyn","NY","Kings"
"11242",40.645099,-73.945032,"Brooklyn","NY","Kings"
"11243",40.645099,-73.945032,"Brooklyn","NY","Kings"
"11244",40.645099,-73.945032,"Brooklyn","NY","Kings"
"11245",40.645099,-73.945032,"Brooklyn","NY","Kings"
"11247",40.645099,-73.945032,"Brooklyn","NY","Kings"
"11248",40.645099,-73.945032,"Brooklyn","NY","Kings"
"11249",40.645099,-73.945032,"Brooklyn","NY","Kings"
"11251",40.645099,-73.945032,"Brooklyn","NY","Kings"
"11252",40.645099,-73.945032,"Brooklyn","NY","Kings"
"11254",40.645099,-73.945032,"Brooklyn","NY","Kings"
"11255",40.645099,-73.945032,"Brooklyn","NY","Kings"
"11256",40.645099,-73.945032,"Brooklyn","NY","Kings"
"11351",40.781703,-73.831698,"Flushing","NY","Queens"
"11352",40.651378,-73.870779,"Flushing","NY","Queens"
"11354",40.766382,-73.82619,"Flushing","NY","Queens"
"11355",40.750317,-73.813903,"Flushing","NY","Queens"
"11356",40.784369,-73.843641,"College Point","NY","Queens"
"11357",40.786173,-73.819069,"Whitestone","NY","Queens"
"11358",40.760426,-73.795788,"Flushing","NY","Queens"
"11359",40.79278,-73.776701,"Bayside","NY","Queens"
"11360",40.756745,-73.803301,"Bayside","NY","Queens"
"11361",40.764438,-73.773026,"Bayside","NY","Queens"
"11362",40.758364,-73.735759,"Little Neck","NY","Queens"
"11363",40.771467,-73.745323,"Little Neck","NY","Queens"
"11364",40.742772,-73.758831,"Oakland Gardens","NY","Queens"
"11365",40.738884,-73.790067,"Fresh Meadows","NY","Queens"
"11366",40.727277,-73.790772,"Fresh Meadows","NY","Queens"
"11367",40.730164,-73.821997,"Flushing","NY","Queens"
"11368",40.748751,-73.854333,"Corona","NY","Queens"
"11369",40.762741,-73.869969,"East Elmhurst","NY","Queens"
"11370",40.763771,-73.891451,"East Elmhurst","NY","Queens"
"11371",40.7712,-73.867514,"Flushing","NY","Queens"
"11372",40.751146,-73.882508,"Jackson Heights","NY","Queens"
"11373",40.73509,-73.877562,"Elmhurst","NY","Queens"
"11374",40.722861,-73.862069,"Rego Park","NY","Queens"
"11375",40.723041,-73.843688,"Forest Hills","NY","Queens"
"11377",40.748372,-73.905445,"Woodside","NY","Queens"
"11378",40.722848,-73.908413,"Maspeth","NY","Queens"
"11379",40.71924,-73.892791,"Middle Village","NY","Queens"
"11380",40.651378,-73.870779,"Elmhurst","NY","Queens"
"11381",40.651378,-73.870779,"Flushing","NY","Queens"
"11385",40.702404,-73.885979,"Ridgewood","NY","Queens"
"11386",40.651378,-73.870779,"Ridgewood","NY","Queens"
"11390",40.651378,-73.870779,"Flushing","NY","Queens"
"11405",40.651378,-73.870779,"Jamaica","NY","Queens"
"11411",40.685535,-73.737064,"Cambria Heights","NY","Queens"
"11412",40.695829,-73.761747,"Saint Albans","NY","Queens"
"11413",40.664542,-73.755926,"Springfield Gardens","NY","Queens"
"11414",40.658825,-73.84382,"Howard Beach","NY","Queens"
"11415",40.707133,-73.829247,"Kew Gardens","NY","Queens"
"11416",40.684546,-73.850708,"Ozone Park","NY","Queens"
"11417",40.675056,-73.844315,"Ozone Park","NY","Queens"
"11418",40.698566,-73.83127,"Richmond Hill","NY","Queens"
"11419",40.686769,-73.822979,"South Richmond Hill","NY","Queens"
"11420",40.674432,-73.819013,"South Ozone Park","NY","Queens"
"11421",40.691917,-73.85666,"Woodhaven","NY","Queens"
"11422",40.659418,-73.736866,"Rosedale","NY","Queens"
"11423",40.716888,-73.766897,"Hollis","NY","Queens"
"11424",40.651378,-73.870779,"Jamaica","NY","Queens"
"11425",40.651378,-73.870779,"Jamaica","NY","Queens"
"11426",40.736798,-73.723176,"Bellerose","NY","Queens"
"11427",40.729293,-73.749811,"Queens Village","NY","Queens"
"11428",40.720639,-73.742099,"Queens Village","NY","Queens"
"11429",40.710076,-73.740151,"Queens Village","NY","Queens"
"11430",40.655246,-73.797769,"Jamaica","NY","Queens"
"11431",40.686903,-73.850143,"Jamaica","NY","Queens"
"11432",40.714531,-73.794435,"Jamaica","NY","Queens"
"11433",40.696533,-73.786776,"Jamaica","NY","Queens"
"11434",40.674583,-73.78156,"Jamaica","NY","Queens"
"11435",40.700229,-73.797278,"Jamaica","NY","Queens"
"11436",40.675283,-73.800696,"Jamaica","NY","Queens"
"11439",40.722008,-73.790822,"Jamaica","NY","Queens"
"11451",40.651378,-73.870779,"Jamaica","NY","Queens"
"11484",40.651378,-73.870779,"Jamaica","NY","Queens"
"11499",40.651378,-73.870779,"Jamaica","NY","Queens"
"11501",40.735901,-73.638061,"Mineola","NY","Nassau"
"11507",40.754757,-73.601772,"Albertson","NY","Nassau"
"11509",40.588854,-73.72709,"Atlantic Beach","NY","Nassau"
"11510",40.654626,-73.608972,"Baldwin","NY","Nassau"
"11514",40.74435,-73.608422,"Carle Place","NY","Nassau"
"11516",40.626453,-73.725825,"Cedarhurst","NY","Nassau"
"11518",40.640387,-73.668224,"East Rockaway","NY","Nassau"
"11520",40.651251,-73.585222,"Freeport","NY","Nassau"
"11530",40.726801,-73.639723,"Garden City","NY","Nassau"
"11531",40.754757,-73.601772,"Garden City","NY","Nassau"
"11535",40.754757,-73.601772,"Garden City","NY","Nassau"
"11536",40.754757,-73.601772,"Garden City","NY","Nassau"
"11542",40.754757,-73.601772,"Glen Cove","NY","Nassau"
"11545",40.754757,-73.601772,"Glen Head","NY","Nassau"
"11547",40.754757,-73.601772,"Glenwood Landing","NY","Nassau"
"11548",40.754757,-73.601772,"Greenvale","NY","Nassau"
"11549",40.754757,-73.601772,"Hempstead","NY","Nassau"
"11550",40.700201,-73.620872,"Hempstead","NY","Nassau"
"11551",40.754757,-73.601772,"Hempstead","NY","Nassau"
"11552",40.690251,-73.653023,"West Hempstead","NY","Nassau"
"11553",40.705868,-73.591421,"Uniondale","NY","Nassau"
"11554",40.72135,-73.55877,"East Meadow","NY","Nassau"
"11555",40.754757,-73.601772,"Uniondale","NY","Nassau"
"11556",40.754757,-73.601772,"Uniondale","NY","Nassau"
"11557",40.638803,-73.693274,"Hewlett","NY","Nassau"
"11558",40.606953,-73.654724,"Island Park","NY","Nassau"
"11559",40.615435,-73.72642,"Lawrence","NY","Nassau"
"11560",40.754757,-73.601772,"Locust Valley","NY","Nassau"
"11561",40.589139,-73.642323,"Long Beach","NY","Nassau"
"11563",40.657602,-73.672574,"Lynbrook","NY","Nassau"
"11564",40.754757,-73.601772,"Lynbrook","NY","Nassau"
"11565",40.674652,-73.673324,"Malverne","NY","Nassau"
"11566",40.668501,-73.553628,"Merrick","NY","Nassau"
"11568",40.754757,-73.601772,"Old Westbury","NY","Nassau"
"11569",40.590503,-73.580822,"Point Lookout","NY","Nassau"
"11570",40.667352,-73.638523,"Rockville Centre","NY","Nassau"
"11571",40.754757,-73.601772,"Rockville Centre","NY","Nassau"
"11572",40.635252,-73.636923,"Oceanside","NY","Nassau"
"11575",40.680451,-73.590071,"Roosevelt","NY","Nassau"
"11576",40.656802,-73.622523,"Roslyn","NY","Nassau"
"11577",40.754757,-73.601772,"Roslyn Heights","NY","Nassau"
"11579",40.754757,-73.601772,"Sea Cliff","NY","Nassau"
"11580",40.676052,-73.697828,"Valley Stream","NY","Nassau"
"11581",40.652253,-73.711775,"Valley Stream","NY","Nassau"
"11582",40.754757,-73.601772,"Valley Stream","NY","Nassau"
"11583",40.754757,-73.601772,"Valley Stream","NY","Nassau"
"11588",40.754757,-73.601772,"Uniondale","NY","Nassau"
"11590",40.74505,-73.571521,"Westbury","NY","Nassau"
"11592",40.621753,-73.632673,"Rockville Centre","NY","Nassau"
"11593",40.754757,-73.601772,"Westbury","NY","Nassau"
"11594",40.754757,-73.601772,"Westbury","NY","Nassau"
"11595",40.754757,-73.601772,"Westbury","NY","Nassau"
"11596",40.754757,-73.601772,"Williston Park","NY","Nassau"
"11597",40.754757,-73.601772,"Westbury","NY","Nassau"
"11598",40.633103,-73.712025,"Woodmere","NY","Nassau"
"11599",40.607574,-73.742691,"Garden City","NY","Nassau"
"11690",40.651378,-73.870779,"Far Rockaway","NY","Queens"
"11691",40.601475,-73.76191,"Far Rockaway","NY","Queens"
"11692",40.5923,-73.793273,"Arverne","NY","Queens"
"11693",40.59846,-73.81427,"Far Rockaway","NY","Queens"
"11694",40.57661,-73.84276,"Rockaway Park","NY","Queens"
"11695",40.651378,-73.870779,"Far Rockaway","NY","Queens"
"11697",40.559365,-73.906713,"Breezy Point","NY","Queens"
"11701",40.686249,-73.411866,"Amityville","NY","Suffolk"
"11702",40.66415,-73.340984,"Babylon","NY","Suffolk"
"11703",40.732348,-73.325363,"North Babylon","NY","Suffolk"
"11704",40.709098,-73.356164,"West Babylon","NY","Suffolk"
"11705",40.748364,-73.057026,"Bayport","NY","Suffolk"
"11706",40.705138,-73.243004,"Bay Shore","NY","Suffolk"
"11707",40.922326,-72.637078,"West Babylon","NY","Suffolk"
"11708",40.922326,-72.637078,"Amityville","NY","Suffolk"
"11709",40.754757,-73.601772,"Bayville","NY","Nassau"
"11710",40.6729,-73.53652,"Bellmore","NY","Nassau"
"11713",40.922326,-72.637078,"Bellport","NY","Suffolk"
"11714",40.728449,-73.495369,"Bethpage","NY","Nassau"
"11715",40.75673,-73.043481,"Blue Point","NY","Suffolk"
"11716",40.76902,-73.113366,"Bohemia","NY","Suffolk"
"11717",40.780882,-73.250336,"Brentwood","NY","Suffolk"
"11718",40.715424,-73.260912,"Brightwaters","NY","Suffolk"
"11719",40.922326,-72.637078,"Brookhaven","NY","Suffolk"
"11720",40.922326,-72.637078,"Centereach","NY","Suffolk"
"11721",40.893197,-73.370462,"Centerport","NY","Suffolk"
"11722",40.78193,-73.196148,"Central Islip","NY","Suffolk"
"11724",40.860098,-73.442315,"Cold Spring Harbor","NY","Suffolk"
"11725",40.842247,-73.280935,"Commack","NY","Suffolk"
"11726",40.68022,-73.394762,"Copiague","NY","Suffolk"
"11727",40.922326,-72.637078,"Coram","NY","Suffolk"
"11729",40.762574,-73.323061,"Deer Park","NY","Suffolk"
"11730",40.724146,-73.175926,"East Islip","NY","Suffolk"
"11731",40.856997,-73.314561,"East Northport","NY","Suffolk"
"11732",40.754757,-73.601772,"East Norwich","NY","Nassau"
"11733",40.922326,-72.637078,"East Setauket","NY","Suffolk"
"11735",40.754757,-73.601772,"Farmingdale","NY","Nassau"
"11736",40.754757,-73.601772,"Farmingdale","NY","Nassau"
"11737",40.754757,-73.601772,"Farmingdale","NY","Nassau"
"11738",40.922326,-72.637078,"Farmingville","NY","Suffolk"
"11739",40.922326,-72.637078,"Great River","NY","Suffolk"
"11740",40.866948,-73.362512,"Greenlawn","NY","Suffolk"
"11741",40.78791,-73.066689,"Holbrook","NY","Suffolk"
"11742",40.798994,-73.048985,"Holtsville","NY","Suffolk"
"11743",40.867647,-73.410218,"Huntington","NY","Suffolk"
"11745",40.922326,-72.637078,"Smithtown","NY","Suffolk"
"11746",40.814348,-73.363363,"Huntington Station","NY","Suffolk"
"11747",40.787248,-73.405573,"Melville","NY","Suffolk"
"11749",40.922326,-72.637078,"Islandia","NY","Suffolk"
"11750",40.922326,-72.637078,"Huntington Station","NY","Suffolk"
"11751",40.72813,-73.217871,"Islip","NY","Suffolk"
"11752",40.757226,-73.182854,"Islip Terrace","NY","Suffolk"
"11753",40.754757,-73.601772,"Jericho","NY","Nassau"
"11754",40.80323,-73.30485,"Kings Park","NY","Suffolk"
"11755",40.85185,-73.129003,"Lake Grove","NY","Suffolk"
"11756",40.7228,-73.515819,"Levittown","NY","Nassau"
"11757",40.688799,-73.376475,"Lindenhurst","NY","Suffolk"
"11758",40.754757,-73.601772,"Massapequa","NY","Nassau"
"11760",40.810246,-73.191789,"Islandia","NY","Suffolk"
"11762",40.754757,-73.601772,"Massapequa Park","NY","Nassau"
"11763",40.922326,-72.637078,"Medford","NY","Suffolk"
"11764",40.922326,-72.637078,"Miller Place","NY","Suffolk"
"11765",40.754757,-73.601772,"Mill Neck","NY","Nassau"
"11766",40.922326,-72.637078,"Mount Sinai","NY","Suffolk"
"11767",40.846678,-73.146763,"Nesconset","NY","Suffolk"
"11768",40.914289,-73.33268,"Northport","NY","Suffolk"
"11769",40.738322,-73.131797,"Oakdale","NY","Suffolk"
"11770",40.644344,-73.161286,"Ocean Beach","NY","Suffolk"
"11771",40.754757,-73.601772,"Oyster Bay","NY","Nassau"
"11772",40.922326,-72.637078,"Patchogue","NY","Suffolk"
"11773",40.754757,-73.601772,"Syosset","NY","Nassau"
"11774",40.754757,-73.601772,"Farmingdale","NY","Nassau"
"11775",40.922326,-72.637078,"Melville","NY","Suffolk"
"11776",40.922326,-72.637078,"Port Jefferson Station","NY","Suffolk"
"11777",40.922326,-72.637078,"Port Jefferson","NY","Suffolk"
"11778",40.922326,-72.637078,"Rocky Point","NY","Suffolk"
"11779",40.808322,-73.130469,"Ronkonkoma","NY","Suffolk"
"11780",40.889314,-73.174435,"Saint James","NY","Suffolk"
"11782",40.745866,-73.085858,"Sayville","NY","Suffolk"
"11783",40.683897,-73.496169,"Seaford","NY","Nassau"
"11784",40.922326,-72.637078,"Selden","NY","Suffolk"
"11786",40.922326,-72.637078,"Shoreham","NY","Suffolk"
"11787",40.856793,-73.208278,"Smithtown","NY","Suffolk"
"11788",40.819074,-73.2122,"Hauppauge","NY","Suffolk"
"11789",40.922326,-72.637078,"Sound Beach","NY","Suffolk"
"11790",40.90129,-73.182803,"Stony Brook","NY","Suffolk"
"11791",40.754757,-73.601772,"Syosset","NY","Nassau"
"11792",40.922326,-72.637078,"Wading River","NY","Suffolk"
"11793",40.67815,-73.509519,"Wantagh","NY","Nassau"
"11794",40.922326,-72.637078,"Stony Brook","NY","Suffolk"
"11795",40.699825,-73.290905,"West Islip","NY","Suffolk"
"11796",40.732304,-73.10002,"West Sayville","NY","Suffolk"
"11797",40.754757,-73.601772,"Woodbury","NY","Nassau"
"11798",40.73417,-73.351354,"Wyandanch","NY","Suffolk"
"11801",40.754757,-73.601772,"Hicksville","NY","Nassau"
"11802",40.754757,-73.601772,"Hicksville","NY","Nassau"
"11803",40.754757,-73.601772,"Plainview","NY","Nassau"
"11804",40.754757,-73.601772,"Old Bethpage","NY","Nassau"
"11805",40.922326,-72.637078,"Mid Island","NY","Suffolk"
"11815",40.754757,-73.601772,"Hicksville","NY","Nassau"
"11819",40.754757,-73.601772,"Hicksville","NY","Nassau"
"11853",40.754757,-73.601772,"Jericho","NY","Nassau"
"11854",40.754757,-73.601772,"Hicksville","NY","Nassau"
"11855",40.754757,-73.601772,"Hicksville","NY","Nassau"
"11901",40.922326,-72.637078,"Riverhead","NY","Suffolk"
"11930",40.922326,-72.637078,"Amagansett","NY","Suffolk"
"11931",40.922326,-72.637078,"Aquebogue","NY","Suffolk"
"11932",40.922326,-72.637078,"Bridgehampton","NY","Suffolk"
"11933",40.922326,-72.637078,"Calverton","NY","Suffolk"
"11934",40.922326,-72.637078,"Center Moriches","NY","Suffolk"
"11935",40.922326,-72.637078,"Cutchogue","NY","Suffolk"
"11937",40.922326,-72.637078,"East Hampton","NY","Suffolk"
"11939",40.922326,-72.637078,"East Marion","NY","Suffolk"
"11940",40.922326,-72.637078,"East Moriches","NY","Suffolk"
"11941",40.922326,-72.637078,"Eastport","NY","Suffolk"
"11942",40.922326,-72.637078,"East Quogue","NY","Suffolk"
"11944",40.922326,-72.637078,"Greenport","NY","Suffolk"
"11946",40.922326,-72.637078,"Hampton Bays","NY","Suffolk"
"11947",40.922326,-72.637078,"Jamesport","NY","Suffolk"
"11948",40.922326,-72.637078,"Laurel","NY","Suffolk"
"11949",40.922326,-72.637078,"Manorville","NY","Suffolk"
"11950",40.922326,-72.637078,"Mastic","NY","Suffolk"
"11951",40.922326,-72.637078,"Mastic Beach","NY","Suffolk"
"11952",40.922326,-72.637078,"Mattituck","NY","Suffolk"
"11953",40.922326,-72.637078,"Middle Island","NY","Suffolk"
"11954",40.922326,-72.637078,"Montauk","NY","Suffolk"
"11955",40.922326,-72.637078,"Moriches","NY","Suffolk"
"11956",40.922326,-72.637078,"New Suffolk","NY","Suffolk"
"11957",40.922326,-72.637078,"Orient","NY","Suffolk"
"11958",40.922326,-72.637078,"Peconic","NY","Suffolk"
"11959",40.922326,-72.637078,"Quogue","NY","Suffolk"
"11960",40.922326,-72.637078,"Remsenburg","NY","Suffolk"
"11961",40.922326,-72.637078,"Ridge","NY","Suffolk"
"11962",40.922326,-72.637078,"Sagaponack","NY","Suffolk"
"11963",40.922326,-72.637078,"Sag Harbor","NY","Suffolk"
"11964",40.922326,-72.637078,"Shelter Island","NY","Suffolk"
"11965",40.922326,-72.637078,"Shelter Island Heights","NY","Suffolk"
"11967",40.922326,-72.637078,"Shirley","NY","Suffolk"
"11968",40.922326,-72.637078,"Southampton","NY","Suffolk"
"11969",40.922326,-72.637078,"Southampton","NY","Suffolk"
"11970",40.922326,-72.637078,"South Jamesport","NY","Suffolk"
"11971",40.922326,-72.637078,"Southold","NY","Suffolk"
"11972",40.922326,-72.637078,"Speonk","NY","Suffolk"
"11973",40.922326,-72.637078,"Upton","NY","Suffolk"
"11975",40.922326,-72.637078,"Wainscott","NY","Suffolk"
"11976",40.922326,-72.637078,"Water Mill","NY","Suffolk"
"11977",40.922326,-72.637078,"Westhampton","NY","Suffolk"
"11978",40.922326,-72.637078,"Westhampton Beach","NY","Suffolk"
"11980",40.922326,-72.637078,"Yaphank","NY","Suffolk"
"12007",42.482455,-73.936671,"Alcove","NY","Albany"
"12008",42.859176,-73.902117,"Alplaus","NY","Schenectady"
"12009",42.688731,-74.030596,"Altamont","NY","Albany"
"12010",42.906298,-74.229042,"Amsterdam","NY","Montgomery"
"12015",42.28004,-73.837035,"Athens","NY","Greene"
"12016",42.910206,-74.423606,"Auriesville","NY","Montgomery"
"12017",42.309805,-73.565617,"Austerlitz","NY","Columbia"
"12018",42.670645,-73.55142,"Averill Park","NY","Rensselaer"
"12019",42.934416,-73.848971,"Ballston Lake","NY","Saratoga"
"12020",42.983588,-73.882538,"Ballston Spa","NY","Saratoga"
"12022",42.67051,-73.357825,"Berlin","NY","Rensselaer"
"12023",42.602236,-74.154615,"Berne","NY","Albany"
"12024",42.494981,-73.510676,"Brainard","NY","Rensselaer"
"12025",43.082793,-74.160753,"Broadalbin","NY","Fulton"
"12027",42.923676,-73.911768,"Burnt Hills","NY","Saratoga"
"12028",42.851332,-73.454055,"Buskirk","NY","Rensselaer"
"12029",42.357057,-73.448944,"Canaan","NY","Columbia"
"12031",42.592287,-74.438129,"Carlisle","NY","Schoharie"
"12032",43.15566,-74.494888,"Caroga Lake","NY","Fulton"
"12033",42.589158,-73.565925,"Castleton On Hudson","NY","Rensselaer"
"12035",42.721081,-74.382064,"Central Bridge","NY","Schoharie"
"12036",42.541025,-74.655395,"Charlotteville","NY","Schoharie"
"12037",42.335777,-73.528651,"Chatham","NY","Columbia"
"12040",42.646742,-73.371611,"Cherry Plain","NY","Rensselaer"
"12041",42.561988,-73.957345,"Clarksville","NY","Albany"
"12042",42.411207,-73.927573,"Climax","NY","Greene"
"12043",42.665376,-74.51884,"Cobleskill","NY","Schoharie"
"12045",42.475704,-73.797722,"Coeymans","NY","Albany"
"12046",42.492791,-73.928403,"Coeymans Hollow","NY","Albany"
"12047",42.647039,-73.739349,"Cohoes","NY","Albany"
"12050",42.317154,-73.748555,"Columbiaville","NY","Columbia"
"12051",42.355924,-73.847967,"Coxsackie","NY","Greene"
"12052",42.670318,-73.549377,"Cropseyville","NY","Rensselaer"
"12053",42.77788,-74.197936,"Delanson","NY","Schenectady"
"12054",42.605467,-73.8757,"Delmar","NY","Albany"
"12055",42.614852,-73.970812,"Dormansville","NY","Albany"
"12056",42.770065,-74.085963,"Duanesburg","NY","Schenectady"
"12057",42.980783,-73.352206,"Eagle Bridge","NY","Washington"
"12058",42.352969,-73.905306,"Earlton","NY","Greene"
"12059",42.618248,-74.028108,"East Berne","NY","Albany"
"12060",42.419964,-73.512815,"East Chatham","NY","Columbia"
"12061",42.570352,-73.655682,"East Greenbush","NY","Rensselaer"
"12062",42.537218,-73.503877,"East Nassau","NY","Rensselaer"
"12063",42.563685,-73.627428,"East Schodack","NY","Rensselaer"
"12064",42.632058,-74.667368,"East Worcester","NY","Otsego"
"12065",42.850576,-73.792524,"Clifton Park","NY","Saratoga"
"12066",42.801547,-74.342884,"Esperance","NY","Montgomery"
"12067",42.555446,-73.913714,"Feura Bush","NY","Albany"
"12068",42.940975,-74.391459,"Fonda","NY","Montgomery"
"12069",42.945701,-74.263312,"Fort Hunter","NY","Montgomery"
"12070",42.969738,-74.292476,"Fort Johnson","NY","Montgomery"
"12071",42.592287,-74.438129,"Fultonham","NY","Schoharie"
"12072",42.877533,-74.404477,"Fultonville","NY","Montgomery"
"12073",42.592287,-74.438129,"Gallupville","NY","Schoharie"
"12074",43.082925,-74.043981,"Galway","NY","Saratoga"
"12075",42.366064,-73.589731,"Ghent","NY","Columbia"
"12076",42.411096,-74.427506,"Gilboa","NY","Schoharie"
"12077",42.595704,-73.787766,"Glenmont","NY","Albany"
"12078",43.114958,-74.344328,"Gloversville","NY","Fulton"
"12082",42.772624,-73.446834,"Grafton","NY","Rensselaer"
"12083",42.382594,-73.951259,"Greenville","NY","Greene"
"12084",42.703519,-73.960324,"Guilderland","NY","Albany"
"12085",42.694777,-73.905271,"Guilderland Center","NY","Albany"
"12086",42.969505,-74.155559,"Hagaman","NY","Montgomery"
"12087",42.411114,-73.881515,"Hannacroix","NY","Greene"
"12089",42.866666,-73.318113,"Hoosick","NY","Rensselaer"
"12090",42.73531,-73.437943,"Hoosick Falls","NY","Rensselaer"
"12092",42.712176,-74.349066,"Howes Cave","NY","Schoharie"
"12093",42.458932,-74.580562,"Jefferson","NY","Schoharie"
"12094",42.879946,-73.48684,"Johnsonville","NY","Rensselaer"
"12095",43.090543,-74.355438,"Johnstown","NY","Fulton"
"12106",42.385231,-73.704442,"Kinderhook","NY","Columbia"
"12107",42.660046,-74.116812,"Knox","NY","Albany"
"12108",43.667618,-74.456913,"Lake Pleasant","NY","Hamilton"
"12110",42.752928,-73.779714,"Latham","NY","Albany"
"12111",42.614852,-73.970812,"Latham","NY","Albany"
"12115",42.473718,-73.56733,"Malden Bridge","NY","Columbia"
"12116",42.551473,-74.913829,"Maryland","NY","Otsego"
"12117",43.132167,-74.248494,"Mayfield","NY","Fulton"
"12118",43.033189,-73.897322,"Mechanicville","NY","Saratoga"
"12120",42.478906,-74.147178,"Medusa","NY","Albany"
"12121",42.712948,-73.601722,"Melrose","NY","Rensselaer"
"12122",42.560533,-74.295505,"Middleburgh","NY","Schoharie"
"12123",42.565736,-73.629023,"Nassau","NY","Rensselaer"
"12124",42.444198,-73.788241,"New Baltimore","NY","Greene"
"12125",42.466748,-73.567189,"New Lebanon","NY","Columbia"
"12128",42.724978,-73.764296,"Newtonville","NY","Albany"
"12130",42.439983,-73.666343,"Niverville","NY","Columbia"
"12131",42.592287,-74.438129,"North Blenheim","NY","Schoharie"
"12132",42.466061,-73.629296,"North Chatham","NY","Columbia"
"12133",42.926121,-73.346409,"North Hoosick","NY","Rensselaer"
"12134",43.176121,-74.248627,"Northville","NY","Fulton"
"12136",42.434992,-73.561172,"Old Chatham","NY","Columbia"
"12137",42.838578,-74.131734,"Pattersonville","NY","Schenectady"
"12138",42.685947,-73.390627,"Petersburg","NY","Rensselaer"
"12139",43.428386,-74.526485,"Piseco","NY","Hamilton"
"12140",42.686757,-73.527434,"Poestenkill","NY","Rensselaer"
"12141",42.731771,-74.185395,"Quaker Street","NY","Schenectady"
"12143",42.493642,-73.858352,"Ravena","NY","Albany"
"12144",42.621627,-73.596089,"Rensselaer","NY","Rensselaer"
"12147",42.500258,-74.160591,"Rensselaerville","NY","Albany"
"12148",42.841619,-73.847016,"Rexford","NY","Saratoga"
"12149",42.609418,-74.594655,"Richmondville","NY","Schoharie"
"12150",42.869961,-74.050083,"Rotterdam Junction","NY","Schenectady"
"12151",42.924726,-73.785914,"Round Lake","NY","Saratoga"
"12153",42.635503,-73.479705,"Sand Lake","NY","Rensselaer"
"12154",42.904445,-73.615618,"Schaghticoke","NY","Rensselaer"
"12155",42.605453,-74.820584,"Schenevus","NY","Otsego"
"12156",42.491469,-73.723935,"Schodack Landing","NY","Rensselaer"
"12157",42.655569,-74.337322,"Schoharie","NY","Schoharie"
"12158",42.529746,-73.840579,"Selkirk","NY","Albany"
"12159",42.644278,-73.876338,"Slingerlands","NY","Albany"
"12160",42.756876,-74.317361,"Sloansville","NY","Schoharie"
"12161",42.521038,-73.851898,"South Bethlehem","NY","Albany"
"12164",43.667618,-74.456913,"Speculator","NY","Hamilton"
"12165",42.331057,-73.529774,"Spencertown","NY","Columbia"
"12166",42.842006,-74.446,"Sprakers","NY","Montgomery"
"12167",42.413508,-74.61939,"Stamford","NY","Delaware"
"12168",42.63593,-73.408789,"Stephentown","NY","Rensselaer"
"12169",42.585511,-73.415444,"Stephentown","NY","Rensselaer"
"12170",43.001932,-73.660897,"Stillwater","NY","Saratoga"
"12172",42.285749,-73.733532,"Stottville","NY","Columbia"
"12173",42.399271,-73.622327,"Stuyvesant","NY","Columbia"
"12174",42.343986,-73.73477,"Stuyvesant Falls","NY","Columbia"
"12175",42.535029,-74.54525,"Summit","NY","Schoharie"
"12176",42.385117,-73.958671,"Surprise","NY","Greene"
"12177",42.95002,-74.296985,"Tribes Hill","NY","Montgomery"
"12179",42.71144,-73.525561,"Troy","NY","Rensselaer"
"12180",42.673701,-73.608792,"Troy","NY","Rensselaer"
"12181",42.738678,-73.673862,"Troy","NY","Rensselaer"
"12182",42.685792,-73.652374,"Troy","NY","Rensselaer"
"12183",42.745994,-73.694263,"Troy","NY","Albany"
"12184",42.398503,-73.626548,"Valatie","NY","Columbia"
"12185",42.856307,-73.500679,"Valley Falls","NY","Rensselaer"
"12186",42.620654,-73.980441,"Voorheesville","NY","Albany"
"12187",42.592287,-74.438129,"Warnerville","NY","Schoharie"
"12188",42.845579,-73.702433,"Waterford","NY","Saratoga"
"12189",42.736277,-73.720318,"Watervliet","NY","Albany"
"12190",43.667618,-74.456913,"Wells","NY","Hamilton"
"12192",42.397703,-73.834836,"West Coxsackie","NY","Greene"
"12193",42.521722,-74.03961,"Westerlo","NY","Albany"
"12194",42.572934,-74.514163,"West Fulton","NY","Schoharie"
"12195",42.479384,-73.474809,"West Lebanon","NY","Columbia"
"12196",42.603715,-73.561566,"West Sand Lake","NY","Rensselaer"
"12197",42.606993,-74.732401,"Worcester","NY","Otsego"
"12198",42.676167,-73.606194,"Wynantskill","NY","Rensselaer"
"12201",42.614852,-73.970812,"Albany","NY","Albany"
"12202",42.636371,-73.763564,"Albany","NY","Albany"
"12203",42.700345,-73.857496,"Albany","NY","Albany"
"12204",42.682978,-73.770714,"Albany","NY","Albany"
"12205",42.719799,-73.820666,"Albany","NY","Albany"
"12206",42.675779,-73.793065,"Albany","NY","Albany"
"12207",42.656029,-73.750764,"Albany","NY","Albany"
"12208",42.654658,-73.805866,"Albany","NY","Albany"
"12209",42.677953,-73.91019,"Albany","NY","Albany"
"12210",42.683079,-73.758115,"Albany","NY","Albany"
"12211",42.712973,-73.773868,"Albany","NY","Albany"
"12212",42.716774,-73.810373,"Albany","NY","Albany"
"12214",42.614852,-73.970812,"Albany","NY","Albany"
"12220",42.614852,-73.970812,"Albany","NY","Albany"
"12222",42.692909,-73.838035,"Albany","NY","Albany"
"12223",42.614852,-73.970812,"Albany","NY","Albany"
"12224",42.614852,-73.970812,"Albany","NY","Albany"
"12225",42.614852,-73.970812,"Albany","NY","Albany"
"12226",42.614852,-73.970812,"Albany","NY","Albany"
"12227",42.614852,-73.970812,"Albany","NY","Albany"
"12228",42.614852,-73.970812,"Albany","NY","Albany"
"12229",42.614852,-73.970812,"Albany","NY","Albany"
"12230",42.614852,-73.970812,"Albany","NY","Albany"
"12231",42.614852,-73.970812,"Albany","NY","Albany"
"12232",42.614852,-73.970812,"Albany","NY","Albany"
"12233",42.614852,-73.970812,"Albany","NY","Albany"
"12234",42.614852,-73.970812,"Albany","NY","Albany"
"12235",42.614852,-73.970812,"Albany","NY","Albany"
"12236",42.614852,-73.970812,"Albany","NY","Albany"
"12237",42.614852,-73.970812,"Albany","NY","Albany"
"12238",42.614852,-73.970812,"Albany","NY","Albany"
"12239",42.614852,-73.970812,"Albany","NY","Albany"
"12240",42.614852,-73.970812,"Albany","NY","Albany"
"12241",42.614852,-73.970812,"Albany","NY","Albany"
"12242",42.614852,-73.970812,"Albany","NY","Albany"
"12243",42.614852,-73.970812,"Albany","NY","Albany"
"12244",42.614852,-73.970812,"Albany","NY","Albany"
"12245",42.614852,-73.970812,"Albany","NY","Albany"
"12246",42.647079,-73.750314,"Albany","NY","Albany"
"12247",42.614852,-73.970812,"Albany","NY","Albany"
"12248",42.614852,-73.970812,"Albany","NY","Albany"
"12249",42.614852,-73.970812,"Albany","NY","Albany"
"12250",42.614852,-73.970812,"Albany","NY","Albany"
"12252",42.614852,-73.970812,"Albany","NY","Albany"
"12255",42.614852,-73.970812,"Albany","NY","Albany"
"12256",42.614852,-73.970812,"Albany","NY","Albany"
"12257",42.614852,-73.970812,"Albany","NY","Albany"
"12260",42.614852,-73.970812,"Albany","NY","Albany"
"12261",42.614852,-73.970812,"Albany","NY","Albany"
"12262",42.614852,-73.970812,"Albany","NY","Albany"
"12288",42.614852,-73.970812,"Albany","NY","Albany"
"12301",42.833261,-74.058015,"Schenectady","NY","Schenectady"
"12302",42.880035,-73.991321,"Schenectady","NY","Schenectady"
"12303",42.782276,-73.944818,"Schenectady","NY","Schenectady"
"12304",42.788176,-73.899917,"Schenectady","NY","Schenectady"
"12305",42.812776,-73.943368,"Schenectady","NY","Schenectady"
"12306",42.816438,-74.052713,"Schenectady","NY","Schenectady"
"12307",42.805376,-73.934868,"Schenectady","NY","Schenectady"
"12308",42.835926,-73.920467,"Schenectady","NY","Schenectady"
"12309",42.809077,-73.869316,"Schenectady","NY","Schenectady"
"12325",42.833261,-74.058015,"Schenectady","NY","Schenectady"
"12345",42.833261,-74.058015,"Schenectady","NY","Schenectady"
"12401",41.96973,-74.06678,"Kingston","NY","Ulster"
"12402",41.878801,-74.345684,"Kingston","NY","Ulster"
"12404",41.949147,-74.130688,"Accord","NY","Ulster"
"12405",42.315975,-74.065515,"Acra","NY","Greene"
"12406",42.141725,-74.572054,"Arkville","NY","Delaware"
"12407",42.332859,-74.367866,"Ashland","NY","Greene"
"12409",42.054666,-74.192451,"Bearsville","NY","Ulster"
"12410",42.073965,-74.453033,"Big Indian","NY","Ulster"
"12411",41.875232,-74.043557,"Bloomington","NY","Ulster"
"12412",41.998413,-74.265437,"Boiceville","NY","Ulster"
"12413",42.301789,-74.029434,"Cairo","NY","Greene"
"12414",42.258459,-74.021968,"Catskill","NY","Greene"
"12416",42.095023,-74.271661,"Chichester","NY","Ulster"
"12417",41.907604,-73.989254,"Connelly","NY","Ulster"
"12418",42.368277,-74.179384,"Cornwallville","NY","Greene"
"12419",41.856903,-74.111235,"Cottekill","NY","Ulster"
"12420",41.669831,-74.380138,"Cragsmoor","NY","Ulster"
"12421",42.235727,-74.56969,"Denver","NY","Delaware"
"12422",42.307188,-74.200237,"Durham","NY","Greene"
"12423",42.377483,-74.123477,"East Durham","NY","Greene"
"12424",42.28041,-74.15549,"East Jewett","NY","Greene"
"12427",42.169082,-74.12958,"Elka Park","NY","Greene"
"12428",41.897181,-74.253996,"Ellenville","NY","Ulster"
"12429",41.816228,-73.992565,"Esopus","NY","Ulster"
"12430",42.177175,-74.547279,"Fleischmanns","NY","Delaware"
"12431",42.336112,-74.024147,"Freehold","NY","Greene"
"12432",41.949795,-74.003246,"Glasco","NY","Ulster"
"12433",42.008413,-74.147995,"Glenford","NY","Ulster"
"12434",42.320684,-74.459223,"Grand Gorge","NY","Delaware"
"12435",41.727613,-74.515647,"Greenfield Park","NY","Ulster"
"12436",42.19551,-74.102319,"Haines Falls","NY","Greene"
"12438",42.183045,-74.925617,"Halcottsville","NY","Delaware"
"12439",42.293905,-74.185279,"Hensonville","NY","Greene"
"12440",41.872233,-74.146678,"High Falls","NY","Ulster"
"12441",41.878801,-74.345684,"Highmount","NY","Ulster"
"12442",42.233275,-74.241582,"Hunter","NY","Greene"
"12443",41.853723,-74.115476,"Hurley","NY","Ulster"
"12444",42.264524,-74.295888,"Jewett","NY","Greene"
"12446",41.884748,-74.232063,"Kerhonkson","NY","Ulster"
"12448",42.083209,-74.191963,"Lake Hill","NY","Ulster"
"12449",41.883711,-74.182479,"Lake Katrine","NY","Ulster"
"12450",42.208809,-74.163793,"Lanesville","NY","Greene"
"12451",42.304064,-73.930812,"Leeds","NY","Greene"
"12452",42.223407,-74.386635,"Lexington","NY","Greene"
"12453",42.098698,-73.935418,"Malden On Hudson","NY","Ulster"
"12454",42.282466,-74.160193,"Maplecrest","NY","Greene"
"12455",42.185189,-74.617819,"Margaretville","NY","Delaware"
"12456",42.037136,-73.992829,"Mount Marion","NY","Ulster"
"12457",41.8743,-74.168979,"Mount Tremper","NY","Ulster"
"12458",41.80137,-74.420108,"Napanoch","NY","Ulster"
"12459",42.20943,-74.683726,"New Kingston","NY","Delaware"
"12460",42.409721,-74.192105,"Oak Hill","NY","Greene"
"12461",41.875001,-74.273362,"Olivebridge","NY","Ulster"
"12463",42.197886,-74.00995,"Palenville","NY","Greene"
"12464",42.019668,-74.228732,"Phoenicia","NY","Ulster"
"12465",42.136293,-74.473639,"Pine Hill","NY","Ulster"
"12466",41.894812,-73.976653,"Port Ewen","NY","Ulster"
"12468",42.286917,-74.385762,"Prattsville","NY","Greene"
"12469",42.464687,-74.213992,"Preston Hollow","NY","Albany"
"12470",42.282915,-74.018409,"Purling","NY","Greene"
"12471",41.840304,-74.030611,"Rifton","NY","Ulster"
"12472",41.873367,-74.074621,"Rosendale","NY","Ulster"
"12473",42.276462,-74.044432,"Round Top","NY","Greene"
"12474",42.295703,-74.563088,"Roxbury","NY","Delaware"
"12475",42.017632,-74.007868,"Ruby","NY","Ulster"
"12477",41.996982,-74.202816,"Saugerties","NY","Ulster"
"12480",41.911181,-74.407894,"Shandaken","NY","Ulster"
"12481",41.970903,-74.218443,"Shokan","NY","Ulster"
"12482",42.267617,-73.986354,"South Cairo","NY","Greene"
"12483",41.663895,-74.424533,"Spring Glen","NY","Ulster"
"12484",41.846274,-74.20731,"Stone Ridge","NY","Ulster"
"12485",42.195922,-74.137242,"Tannersville","NY","Greene"
"12486",41.837953,-74.232241,"Tillson","NY","Ulster"
"12487",41.857076,-74.017907,"Ulster Park","NY","Ulster"
"12489",41.760604,-74.353531,"Wawarsing","NY","Ulster"
"12490",42.108689,-73.934577,"West Camp","NY","Ulster"
"12491",41.983752,-74.124371,"West Hurley","NY","Ulster"
"12492",42.206787,-74.375508,"West Kill","NY","Greene"
"12493",41.795276,-73.980908,"West Park","NY","Ulster"
"12494",41.972572,-74.267623,"West Shokan","NY","Ulster"
"12495",42.046885,-74.203575,"Willow","NY","Ulster"
"12496",42.320273,-74.231589,"Windham","NY","Greene"
"12498",41.883076,-74.169764,"Woodstock","NY","Ulster"
"12501",41.826491,-73.710901,"Amenia","NY","Dutchess"
"12502",42.067399,-73.657698,"Ancram","NY","Columbia"
"12503",42.043039,-73.587575,"Ancramdale","NY","Columbia"
"12504",42.035434,-73.909234,"Annandale On Hudson","NY","Dutchess"
"12506",41.759905,-73.743714,"Bangall","NY","Dutchess"
"12507",42.000547,-73.919899,"Barrytown","NY","Dutchess"
"12508",41.712677,-73.773082,"Beacon","NY","Dutchess"
"12510",41.759905,-73.743714,"Billings","NY","Dutchess"
"12511",41.759905,-73.743714,"Castle Point","NY","Dutchess"
"12512",41.552793,-73.968183,"Chelsea","NY","Dutchess"
"12513",42.206862,-73.694642,"Claverack","NY","Columbia"
"12514",41.867364,-73.777256,"Clinton Corners","NY","Dutchess"
"12515",41.682335,-74.05799,"Clintondale","NY","Ulster"
"12516",42.099322,-73.576102,"Copake","NY","Columbia"
"12517",42.130934,-73.548337,"Copake Falls","NY","Columbia"
"12518",41.348593,-74.135167,"Cornwall","NY","Orange"
"12520",41.431474,-74.132883,"Cornwall On Hudson","NY","Orange"
"12521",42.190488,-73.64465,"Craryville","NY","Columbia"
"12522",41.800316,-73.687324,"Dover Plains","NY","Dutchess"
"12523",42.119528,-73.697297,"Elizaville","NY","Columbia"
"12524",41.61898,-73.847308,"Fishkill","NY","Dutchess"
"12525",41.677151,-74.17387,"Gardiner","NY","Ulster"
"12526",42.121298,-73.792924,"Germantown","NY","Columbia"
"12527",41.520249,-73.933259,"Glenham","NY","Dutchess"
"12528",41.720945,-74.009481,"Highland","NY","Ulster"
"12529",42.19327,-73.550028,"Hillsdale","NY","Columbia"
"12530",42.210991,-73.687001,"Hollowville","NY","Columbia"
"12531",41.549045,-73.670325,"Holmes","NY","Dutchess"
"12533",41.748948,-73.766191,"Hopewell Junction","NY","Dutchess"
"12534",42.184313,-73.742997,"Hudson","NY","Columbia"
"12537",41.582437,-73.936281,"Hughsonville","NY","Dutchess"
"12538",41.813468,-73.814913,"Hyde Park","NY","Dutchess"
"12540",41.633029,-73.743183,"Lagrangeville","NY","Dutchess"
"12541",42.142068,-73.757399,"Livingston","NY","Columbia"
"12542",41.612647,-74.002802,"Marlboro","NY","Ulster"
"12543",41.357625,-74.230587,"Maybrook","NY","Orange"
"12544",42.259623,-73.667962,"Mellenville","NY","Columbia"
"12545",41.832012,-73.637175,"Millbrook","NY","Dutchess"
"12546",41.93846,-73.546336,"Millerton","NY","Dutchess"
"12547",41.644832,-74.068056,"Milton","NY","Ulster"
"12548",41.672278,-74.103276,"Modena","NY","Ulster"
"12549",41.405901,-74.255717,"Montgomery","NY","Orange"
"12550",41.38537,-74.185363,"Newburgh","NY","Orange"
"12551",41.387822,-74.354699,"Newburgh","NY","Orange"
"12552",41.387822,-74.354699,"Newburgh","NY","Orange"
"12553",41.413667,-74.311974,"New Windsor","NY","Orange"
"12555",41.387822,-74.354699,"Mid Hudson","NY","Orange"
"12561",41.74638,-74.109241,"New Paltz","NY","Ulster"
"12563",41.485285,-73.595066,"Patterson","NY","Putnam"
"12564",41.663759,-73.590491,"Pawling","NY","Dutchess"
"12565",42.250141,-73.659054,"Philmont","NY","Columbia"
"12566",41.405485,-74.219343,"Pine Bush","NY","Orange"
"12567",41.952681,-73.63633,"Pine Plains","NY","Dutchess"
"12568",41.641207,-74.07805,"Plattekill","NY","Ulster"
"12569",41.825708,-73.783655,"Pleasant Valley","NY","Dutchess"
"12570",41.646389,-73.650107,"Poughquag","NY","Dutchess"
"12571",41.808427,-73.786847,"Red Hook","NY","Dutchess"
"12572",41.836548,-73.760423,"Rhinebeck","NY","Dutchess"
"12574",41.915068,-73.95173,"Rhinecliff","NY","Dutchess"
"12575",41.50755,-74.156394,"Rock Tavern","NY","Orange"
"12577",41.437176,-74.121804,"Salisbury Mills","NY","Orange"
"12578",41.81246,-73.786647,"Salt Point","NY","Dutchess"
"12580",41.881636,-73.72455,"Staatsburg","NY","Dutchess"
"12581",41.913511,-73.695442,"Stanfordville","NY","Dutchess"
"12582",41.554509,-73.72667,"Stormville","NY","Dutchess"
"12583",41.909683,-73.749214,"Tivoli","NY","Dutchess"
"12584",41.464073,-74.059104,"Vails Gate","NY","Orange"
"12585",41.716145,-73.690109,"Verbank","NY","Dutchess"
"12586",41.406785,-74.26731,"Walden","NY","Orange"
"12588",41.878801,-74.345684,"Walker Valley","NY","Ulster"
"12589",41.631653,-74.154472,"Wallkill","NY","Ulster"
"12590",41.736948,-73.741141,"Wappingers Falls","NY","Dutchess"
"12592",41.802285,-73.560425,"Wassaic","NY","Dutchess"
"12593",42.243991,-73.641076,"West Copake","NY","Columbia"
"12594",41.672789,-73.584346,"Wingdale","NY","Dutchess"
"12601",41.695839,-73.896164,"Poughkeepsie","NY","Dutchess"
"12602",41.759905,-73.743714,"Poughkeepsie","NY","Dutchess"
"12603",41.690707,-73.862074,"Poughkeepsie","NY","Dutchess"
"12604",41.759905,-73.743714,"Poughkeepsie","NY","Dutchess"
"12701",41.686944,-74.677156,"Monticello","NY","Sullivan"
"12719",41.486186,-74.915176,"Barryville","NY","Sullivan"
"12720",41.661466,-74.911474,"Bethel","NY","Sullivan"
"12721",41.63868,-74.721754,"Bloomingburg","NY","Sullivan"
"12722",41.719016,-74.755373,"Burlingham","NY","Sullivan"
"12723",41.775202,-75.01807,"Callicoon","NY","Sullivan"
"12724",41.719016,-74.755373,"Callicoon Center","NY","Sullivan"
"12725",41.899285,-74.58802,"Claryville","NY","Sullivan"
"12726",41.691959,-74.974074,"Cochecton","NY","Sullivan"
"12727",41.719016,-74.755373,"Cochecton Center","NY","Sullivan"
"12729",41.403723,-74.425265,"Cuddebackville","NY","Orange"
"12732",41.517426,-74.845788,"Eldred","NY","Sullivan"
"12733",41.647052,-74.537252,"Fallsburg","NY","Sullivan"
"12734",41.734858,-74.734508,"Ferndale","NY","Sullivan"
"12736",41.878194,-75.034258,"Fremont Center","NY","Sullivan"
"12737",41.547309,-74.820881,"Glen Spey","NY","Sullivan"
"12738",41.656753,-74.568565,"Glen Wild","NY","Sullivan"
"12739",41.450914,-74.601097,"Godeffroy","NY","Orange"
"12740",41.818383,-74.748053,"Grahamsville","NY","Sullivan"
"12741",41.839135,-75.05342,"Hankins","NY","Sullivan"
"12742",41.710156,-74.71536,"Harris","NY","Sullivan"
"12743",41.531346,-74.849136,"Highland Lake","NY","Sullivan"
"12745",41.762944,-75.030592,"Hortonville","NY","Sullivan"
"12746",41.437689,-74.640019,"Huguenot","NY","Orange"
"12747",41.770283,-74.726066,"Hurleyville","NY","Sullivan"
"12748",41.782874,-74.905417,"Jeffersonville","NY","Sullivan"
"12749",41.687384,-74.835807,"Kauneonga Lake","NY","Sullivan"
"12750",41.729581,-74.961146,"Kenoza Lake","NY","Sullivan"
"12751",41.694655,-74.682731,"Kiamesha Lake","NY","Sullivan"
"12752",41.758563,-74.946306,"Lake Huntington","NY","Sullivan"
"12754",41.71994,-74.66934,"Liberty","NY","Sullivan"
"12758",41.818205,-74.802549,"Livingston Manor","NY","Sullivan"
"12759",41.786516,-74.658843,"Loch Sheldrake","NY","Sullivan"
"12760",41.871276,-75.076328,"Long Eddy","NY","Sullivan"
"12762",41.686123,-74.783554,"Mongaup Valley","NY","Sullivan"
"12763",41.80469,-74.696318,"Mountain Dale","NY","Sullivan"
"12764",41.595908,-74.96233,"Narrowsburg","NY","Sullivan"
"12765",41.865656,-74.60902,"Neversink","NY","Sullivan"
"12766",41.820897,-74.995771,"North Branch","NY","Sullivan"
"12767",41.719016,-74.755373,"Obernburg","NY","Sullivan"
"12768",41.841414,-74.857261,"Parksville","NY","Sullivan"
"12769",41.651453,-74.436159,"Phillipsport","NY","Sullivan"
"12770",41.446322,-74.856932,"Pond Eddy","NY","Sullivan"
"12771",41.357119,-74.498396,"Port Jervis","NY","Orange"
"12775",41.619506,-74.575902,"Rock Hill","NY","Sullivan"
"12776",41.819249,-74.951782,"Roscoe","NY","Sullivan"
"12777",41.552911,-74.603366,"Forestburgh","NY","Sullivan"
"12778",41.661538,-74.817751,"Smallwood","NY","Sullivan"
"12779",41.770195,-74.716843,"South Fallsburg","NY","Sullivan"
"12780",41.376892,-74.459687,"Sparrow Bush","NY","Orange"
"12781",41.719016,-74.755373,"Summitville","NY","Sullivan"
"12782",41.881485,-74.430063,"Sundown","NY","Ulster"
"12783",41.657319,-74.840778,"Swan Lake","NY","Sullivan"
"12784",41.714311,-74.584061,"Thompsonville","NY","Sullivan"
"12785",41.719016,-74.755373,"Westbrookville","NY","Sullivan"
"12786",41.64788,-74.811773,"White Lake","NY","Sullivan"
"12787",41.800193,-74.828611,"White Sulphur Springs","NY","Sullivan"
"12788",41.810974,-74.729403,"Woodbourne","NY","Sullivan"
"12789",41.797345,-74.671013,"Woodridge","NY","Sullivan"
"12790",41.592331,-74.552644,"Wurtsboro","NY","Sullivan"
"12791",41.695449,-74.746874,"Youngsville","NY","Sullivan"
"12792",41.591075,-74.749722,"Yulan","NY","Sullivan"
"12801",43.31888,-73.669061,"Glens Falls","NY","Warren"
"12803",43.283561,-73.629401,"South Glens Falls","NY","Saratoga"
"12804",43.489472,-73.789563,"Queensbury","NY","Warren"
"12808",43.708338,-73.794147,"Adirondack","NY","Warren"
"12809",43.280711,-73.484828,"Argyle","NY","Washington"
"12810",43.59886,-73.943693,"Athol","NY","Warren"
"12811",43.62422,-74.061201,"Bakers Mills","NY","Warren"
"12812",43.667618,-74.456913,"Blue Mountain Lake","NY","Hamilton"
"12814",43.574329,-73.677564,"Bolton Landing","NY","Warren"
"12815",43.677503,-73.773434,"Brant Lake","NY","Warren"
"12816",43.068526,-73.392229,"Cambridge","NY","Washington"
"12817",43.522364,-73.794491,"Chestertown","NY","Warren"
"12819",43.614194,-73.503056,"Clemons","NY","Washington"
"12820",43.47181,-73.639291,"Cleverdale","NY","Warren"
"12821",43.46144,-73.403287,"Comstock","NY","Washington"
"12822",43.241967,-73.890739,"Corinth","NY","Saratoga"
"12823",43.154262,-73.458063,"Cossayuna","NY","Washington"
"12824",43.560729,-73.755545,"Diamond Point","NY","Warren"
"12827",43.443936,-73.489198,"Fort Ann","NY","Washington"
"12828",43.371195,-73.434566,"Fort Edward","NY","Washington"
"12831",43.204261,-73.707415,"Gansevoort","NY","Saratoga"
"12832",43.369373,-73.331692,"Granville","NY","Washington"
"12833",43.181214,-73.906293,"Greenfield Center","NY","Saratoga"
"12834",43.212754,-73.434261,"Greenwich","NY","Washington"
"12835",43.287589,-73.976958,"Hadley","NY","Saratoga"
"12836",43.730225,-73.543498,"Hague","NY","Warren"
"12837",43.492705,-73.278904,"Hampton","NY","Washington"
"12838",43.354304,-73.404906,"Hartford","NY","Washington"
"12839",43.203596,-73.468589,"Hudson Falls","NY","Washington"
"12841",43.646953,-73.508308,"Huletts Landing","NY","Washington"
"12842",43.749928,-74.327593,"Indian Lake","NY","Hamilton"
"12843",43.58596,-73.916498,"Johnsburg","NY","Warren"
"12844",43.475353,-73.627156,"Kattskill Bay","NY","Warren"
"12845",43.518611,-73.875462,"Lake George","NY","Warren"
"12846",43.455598,-73.771547,"Lake Luzerne","NY","Warren"
"12847",43.953253,-74.440029,"Long Lake","NY","Hamilton"
"12848",43.100123,-73.524554,"Middle Falls","NY","Washington"
"12849",43.442087,-73.290902,"Middle Granville","NY","Washington"
"12850",43.185956,-73.983737,"Middle Grove","NY","Saratoga"
"12851",44.214452,-73.787317,"Minerva","NY","Essex"
"12852",44.145678,-73.815204,"Newcomb","NY","Essex"
"12853",43.622181,-73.922201,"North Creek","NY","Warren"
"12854",43.452517,-73.34095,"North Granville","NY","Washington"
"12855",43.970736,-73.721139,"North Hudson","NY","Essex"
"12856",43.723665,-74.087329,"North River","NY","Warren"
"12857",44.145678,-73.815204,"Olmstedville","NY","Essex"
"12858",43.879451,-73.400254,"Paradox","NY","Essex"
"12859",43.20138,-73.891854,"Porter Corners","NY","Saratoga"
"12860",43.592829,-73.784407,"Pottersville","NY","Warren"
"12861",43.743816,-73.422181,"Putnam Station","NY","Washington"
"12862",43.675377,-73.932509,"Riparius","NY","Warren"
"12863",43.061305,-73.92308,"Rock City Falls","NY","Saratoga"
"12864",43.667618,-74.456913,"Sabael","NY","Hamilton"
"12865",43.225966,-73.348736,"Salem","NY","Washington"
"12866",43.101145,-73.850623,"Saratoga Springs","NY","Saratoga"
"12870",43.841273,-73.759213,"Schroon Lake","NY","Essex"
"12871",43.130211,-73.643205,"Schuylerville","NY","Saratoga"
"12872",44.145678,-73.815204,"Severance","NY","Essex"
"12873",43.104587,-73.314179,"Shushan","NY","Washington"
"12874",43.693173,-73.505019,"Silver Bay","NY","Warren"
"12878",43.464398,-73.876364,"Stony Creek","NY","Warren"
"12879",44.145678,-73.815204,"Newcomb","NY","Essex"
"12883",43.852071,-73.478024,"Ticonderoga","NY","Essex"
"12884",43.088397,-73.591652,"Victory Mills","NY","Saratoga"
"12885",43.570457,-73.859928,"Warrensburg","NY","Warren"
"12886",43.631297,-73.936399,"Wevertown","NY","Warren"
"12887",43.492815,-73.421536,"Whitehall","NY","Washington"
"12901",44.71187,-73.637104,"Plattsburgh","NY","Clinton"
"12903",44.685411,-73.447398,"Plattsburgh","NY","Clinton"
"12910",44.865209,-73.577683,"Altona","NY","Clinton"
"12911",44.528081,-73.471946,"Keeseville","NY","Clinton"
"12912",44.711326,-73.648386,"Au Sable Forks","NY","Clinton"
"12913",44.401213,-74.070277,"Bloomingdale","NY","Essex"
"12914",44.674942,-74.444789,"Bombay","NY","Franklin"
"12915",44.552725,-74.317958,"Brainardsville","NY","Franklin"
"12916",44.87763,-74.489379,"Brushton","NY","Franklin"
"12917",44.932057,-74.200948,"Burke","NY","Franklin"
"12918",44.686162,-73.670249,"Cadyville","NY","Clinton"
"12919",44.726056,-73.578285,"Champlain","NY","Clinton"
"12920",44.932727,-74.068371,"Chateaugay","NY","Franklin"
"12921",44.879906,-73.452578,"Chazy","NY","Clinton"
"12922",44.287829,-74.702338,"Childwold","NY","Saint Lawrence"
"12923",44.916842,-73.932053,"Churubusco","NY","Clinton"
"12924",44.706561,-73.744555,"Keeseville","NY","Clinton"
"12926",44.944145,-74.327316,"Constable","NY","Franklin"
"12927",44.228969,-74.858103,"Cranberry Lake","NY","Saint Lawrence"
"12928",43.930616,-73.58854,"Crown Point","NY","Essex"
"12929",44.847709,-73.582317,"Dannemora","NY","Clinton"
"12930",44.552725,-74.317958,"Dickinson Center","NY","Franklin"
"12932",44.145678,-73.815204,"Elizabethtown","NY","Essex"
"12933",44.881962,-73.963279,"Ellenburg","NY","Clinton"
"12934",44.892243,-73.907936,"Ellenburg Center","NY","Clinton"
"12935",44.801467,-73.739157,"Ellenburg Depot","NY","Clinton"
"12936",44.273412,-73.377434,"Essex","NY","Essex"
"12937",44.955977,-74.48674,"Fort Covington","NY","Franklin"
"12939",44.552725,-74.317958,"Gabriels","NY","Franklin"
"12941",44.145678,-73.815204,"Jay","NY","Essex"
"12942",44.145678,-73.815204,"Keene","NY","Essex"
"12943",44.202397,-73.773111,"Keene Valley","NY","Essex"
"12944",44.343063,-73.436913,"Keeseville","NY","Essex"
"12945",44.552725,-74.317958,"Lake Clear","NY","Franklin"
"12946",44.130663,-73.734652,"Lake Placid","NY","Essex"
"12949",44.746861,-74.660413,"Lawrenceville","NY","Saint Lawrence"
"12950",44.145678,-73.815204,"Lewis","NY","Essex"
"12952",44.734587,-73.900452,"Lyon Mountain","NY","Clinton"
"12953",44.859117,-74.288237,"Malone","NY","Franklin"
"12955",44.804316,-73.97299,"Lyon Mountain","NY","Clinton"
"12956",44.12404,-73.491335,"Mineville","NY","Essex"
"12957",44.85688,-74.552321,"Moira","NY","Franklin"
"12958",44.792956,-73.661296,"Mooers","NY","Clinton"
"12959",44.76292,-73.615749,"Mooers Forks","NY","Clinton"
"12960",44.041863,-73.505265,"Moriah","NY","Essex"
"12961",44.055155,-73.534677,"Moriah Center","NY","Essex"
"12962",44.617784,-73.605062,"Morrisonville","NY","Clinton"
"12964",44.145678,-73.815204,"New Russia","NY","Essex"
"12965",44.726424,-74.678121,"Nicholville","NY","Saint Lawrence"
"12966",44.8532,-74.419121,"North Bangor","NY","Franklin"
"12967",44.761862,-74.680488,"North Lawrence","NY","Saint Lawrence"
"12969",44.552725,-74.317958,"Owls Head","NY","Franklin"
"12970",44.552725,-74.317958,"Paul Smiths","NY","Franklin"
"12972",44.66607,-73.569167,"Peru","NY","Clinton"
"12973",44.234289,-74.555957,"Piercefield","NY","Saint Lawrence"
"12974",44.087072,-73.461308,"Port Henry","NY","Essex"
"12975",44.526437,-73.409243,"Port Kent","NY","Essex"
"12976",44.552725,-74.317958,"Rainbow Lake","NY","Franklin"
"12977",44.145678,-73.815204,"Ray Brook","NY","Essex"
"12978",44.664956,-73.761204,"Redford","NY","Clinton"
"12979",44.864633,-73.626615,"Rouses Point","NY","Clinton"
"12980",44.657819,-74.515511,"Saint Regis Falls","NY","Franklin"
"12981",44.624413,-73.809266,"Saranac","NY","Clinton"
"12983",44.583429,-74.272104,"Saranac Lake","NY","Franklin"
"12985",44.570072,-73.678749,"Schuyler Falls","NY","Clinton"
"12986",44.599971,-74.294012,"Tupper Lake","NY","Franklin"
"12987",44.145678,-73.815204,"Upper Jay","NY","Essex"
"12989",44.552725,-74.317958,"Vermontville","NY","Franklin"
"12992",44.827274,-73.513225,"West Chazy","NY","Clinton"
"12993",44.18783,-73.434541,"Westport","NY","Essex"
"12995",44.805681,-74.252254,"Whippleville","NY","Franklin"
"12996",44.242261,-73.416202,"Willsboro","NY","Essex"
"12997",44.145678,-73.815204,"Wilmington","NY","Essex"
"12998",44.08267,-73.530601,"Witherbee","NY","Essex"
"13020",42.823968,-76.062425,"Apulia Station","NY","Onondaga"
"13021",42.894381,-76.565683,"Auburn","NY","Cayuga"
"13022",43.163364,-76.509567,"Auburn","NY","Cayuga"
"13024",43.163364,-76.509567,"Auburn","NY","Cayuga"
"13026",42.755979,-76.646007,"Aurora","NY","Cayuga"
"13027",43.158531,-76.360147,"Baldwinsville","NY","Onondaga"
"13028",43.310494,-76.135765,"Bernhards Bay","NY","Oswego"
"13029",43.227448,-76.140648,"Brewerton","NY","Onondaga"
"13030",43.165372,-75.993896,"Bridgeport","NY","Onondaga"
"13031",43.049756,-76.348012,"Camillus","NY","Onondaga"
"13032",43.005767,-75.798607,"Canastota","NY","Madison"
"13033",43.185529,-76.579082,"Cato","NY","Cayuga"
"13034",42.924315,-76.676419,"Cayuga","NY","Cayuga"
"13035",42.939422,-75.775568,"Cazenovia","NY","Madison"
"13036",43.330332,-76.17085,"Central Square","NY","Oswego"
"13037",43.009985,-75.806194,"Chittenango","NY","Madison"
"13039",43.125491,-76.154128,"Cicero","NY","Onondaga"
"13040",42.565932,-75.955301,"Cincinnatus","NY","Cortland"
"13041",43.119217,-76.131931,"Clay","NY","Onondaga"
"13042",43.27637,-76.225752,"Cleveland","NY","Oswego"
"13043",43.042044,-75.740848,"Clockville","NY","Madison"
"13044",43.301232,-75.982593,"Constantia","NY","Oswego"
"13045",42.614268,-76.120128,"Cortland","NY","Cortland"
"13051",42.870698,-75.91128,"Delphi Falls","NY","Onondaga"
"13052",42.776527,-75.859458,"De Ruyter","NY","Madison"
"13053",42.477712,-76.291224,"Dryden","NY","Tompkins"
"13054",43.14548,-75.559605,"Durhamville","NY","Oneida"
"13056",42.677155,-76.105201,"East Homer","NY","Cortland"
"13057",43.096216,-76.047426,"East Syracuse","NY","Onondaga"
"13060",43.027813,-76.416612,"Elbridge","NY","Onondaga"
"13061",42.841725,-75.744589,"Erieville","NY","Madison"
"13062",42.484352,-76.389023,"Etna","NY","Tompkins"
"13063",42.855631,-75.976158,"Fabius","NY","Onondaga"
"13064",43.431311,-76.200448,"Fair Haven","NY","Oswego"
"13065",42.822662,-76.80197,"Fayette","NY","Seneca"
"13066",42.947789,-75.995518,"Fayetteville","NY","Onondaga"
"13068",42.49653,-76.372864,"Freeville","NY","Tompkins"
"13069",43.345255,-76.227027,"Fulton","NY","Oswego"
"13071",42.673871,-76.526226,"Genoa","NY","Cayuga"
"13072",42.768124,-75.788393,"Georgetown","NY","Madison"
"13073",42.579298,-76.392709,"Groton","NY","Tompkins"
"13074",43.324451,-76.306549,"Hannibal","NY","Oswego"
"13076",43.338817,-76.189586,"Hastings","NY","Oswego"
"13077",42.678012,-76.175275,"Homer","NY","Cortland"
"13078",42.966136,-76.057658,"Jamesville","NY","Onondaga"
"13080",43.067413,-76.439657,"Jordan","NY","Onondaga"
"13081",42.876886,-76.631117,"King Ferry","NY","Cayuga"
"13082",43.103886,-75.961597,"Kirkville","NY","Onondaga"
"13083",43.642147,-76.029304,"Lacona","NY","Oswego"
"13084",42.891099,-76.128862,"La Fayette","NY","Onondaga"
"13087",42.706981,-76.156103,"Little York","NY","Cortland"
"13088",43.124866,-76.207867,"Liverpool","NY","Onondaga"
"13089",43.02143,-76.197701,"Liverpool","NY","Onondaga"
"13090",43.152767,-76.223459,"Liverpool","NY","Onondaga"
"13092",42.659466,-76.410528,"Locke","NY","Cayuga"
"13093",43.431311,-76.200448,"Lycoming","NY","Oswego"
"13101",42.597468,-76.072949,"Mc Graw","NY","Cortland"
"13102",42.554215,-76.292723,"Mc Lean","NY","Tompkins"
"13103",43.339851,-76.096357,"Mallory","NY","Oswego"
"13104",42.955618,-75.96654,"Manlius","NY","Onondaga"
"13107",43.457798,-76.153442,"Maple View","NY","Oswego"
"13108",42.948057,-76.329799,"Marcellus","NY","Onondaga"
"13110",42.8809,-76.291265,"Marietta","NY","Onondaga"
"13111",43.258337,-76.6292,"Martville","NY","Cayuga"
"13112",43.098983,-76.413216,"Memphis","NY","Onondaga"
"13113",43.089111,-76.621747,"Meridian","NY","Cayuga"
"13114",43.398473,-76.204997,"Mexico","NY","Oswego"
"13115",43.397671,-76.482365,"Minetto","NY","Oswego"
"13116",43.076828,-76.006001,"Minoa","NY","Onondaga"
"13117",43.002267,-76.704722,"Montezuma","NY","Cayuga"
"13118",42.737724,-76.407811,"Moravia","NY","Cayuga"
"13119",42.97446,-76.440833,"Mottville","NY","Onondaga"
"13120",42.951126,-76.179845,"Nedrow","NY","Onondaga"
"13121",43.483379,-76.315044,"New Haven","NY","Oswego"
"13122",42.825164,-75.85266,"New Woodstock","NY","Madison"
"13123",43.236407,-75.776918,"North Bay","NY","Oneida"
"13124",42.479801,-75.622857,"North Pitcher","NY","Chenango"
"13126",43.465388,-76.342172,"Oswego","NY","Oswego"
"13129",42.712735,-75.731391,"Georgetown","NY","Chenango"
"13131",43.43397,-76.120904,"Parish","NY","Oswego"
"13132",43.296808,-76.229091,"Pennellville","NY","Oswego"
"13134",42.968619,-75.679351,"Peterboro","NY","Madison"
"13135",43.33021,-76.260803,"Phoenix","NY","Oswego"
"13136",42.619466,-75.845544,"Pitcher","NY","Chenango"
"13137",43.157653,-76.44698,"Plainville","NY","Onondaga"
"13138",42.89274,-76.026459,"Pompey","NY","Onondaga"
"13139",42.742057,-76.628454,"Poplar Ridge","NY","Cayuga"
"13140",42.886349,-76.541321,"Port Byron","NY","Cayuga"
"13141",42.739682,-76.157108,"Preble","NY","Cortland"
"13142",43.560497,-76.15532,"Pulaski","NY","Oswego"
"13143",43.238248,-76.752077,"Red Creek","NY","Wayne"
"13144",43.571095,-75.972208,"Richland","NY","Oswego"
"13145",43.621562,-76.11029,"Sandy Creek","NY","Oswego"
"13146",43.099386,-76.762705,"Savannah","NY","Wayne"
"13147",42.770829,-76.586213,"Scipio Center","NY","Cayuga"
"13148",42.905264,-76.794921,"Seneca Falls","NY","Seneca"
"13152",42.884394,-76.285202,"Skaneateles","NY","Onondaga"
"13153",42.991112,-76.451147,"Skaneateles Falls","NY","Onondaga"
"13154",43.134425,-76.765591,"South Butler","NY","Wayne"
"13155",42.654768,-75.769855,"South Otselic","NY","Chenango"
"13156",43.341948,-76.665228,"Sterling","NY","Cayuga"
"13157",43.209147,-75.72307,"Sylvan Beach","NY","Oneida"
"13158",42.696543,-75.98409,"Truxton","NY","Cortland"
"13159",42.830037,-76.124357,"Tully","NY","Onondaga"
"13160",42.847447,-76.649164,"Union Springs","NY","Cayuga"
"13162",43.18852,-75.712551,"Verona Beach","NY","Oneida"
"13163",43.078461,-75.701639,"Wampsville","NY","Madison"
"13164",43.100588,-76.321678,"Warners","NY","Onondaga"
"13165",42.892556,-76.882263,"Waterloo","NY","Seneca"
"13166",43.046493,-76.555316,"Weedsport","NY","Cayuga"
"13167",43.346453,-76.229719,"West Monroe","NY","Oswego"
"13201",43.02143,-76.197701,"Syracuse","NY","Onondaga"
"13202",43.043116,-76.150796,"Syracuse","NY","Onondaga"
"13203",43.062016,-76.134145,"Syracuse","NY","Onondaga"
"13204",43.055766,-76.177597,"Syracuse","NY","Onondaga"
"13205",43.006816,-76.142495,"Syracuse","NY","Onondaga"
"13206",43.076416,-76.109995,"Syracuse","NY","Onondaga"
"13207",43.012216,-76.170596,"Syracuse","NY","Onondaga"
"13208",43.074466,-76.145796,"Syracuse","NY","Onondaga"
"13209",43.084666,-76.240549,"Syracuse","NY","Onondaga"
"13210",43.031416,-76.110995,"Syracuse","NY","Onondaga"
"13211",43.091916,-76.124645,"Syracuse","NY","Onondaga"
"13212",43.122566,-76.128382,"Syracuse","NY","Onondaga"
"13214",43.039666,-76.072153,"Syracuse","NY","Onondaga"
"13215",42.972161,-76.227599,"Syracuse","NY","Onondaga"
"13217",43.02143,-76.197701,"Syracuse","NY","Onondaga"
"13218",43.02143,-76.197701,"Syracuse","NY","Onondaga"
"13219",43.041703,-76.222898,"Syracuse","NY","Onondaga"
"13220",43.123415,-76.12823,"Syracuse","NY","Onondaga"
"13221",43.02143,-76.197701,"Syracuse","NY","Onondaga"
"13224",43.038366,-76.099394,"Syracuse","NY","Onondaga"
"13225",43.02143,-76.197701,"Syracuse","NY","Onondaga"
"13235",,,"Syracuse","NY","Onondaga"
"13244",43.037716,-76.139646,"Syracuse","NY","Onondaga"
"13250",43.02143,-76.197701,"Syracuse","NY","Onondaga"
"13251",43.02143,-76.197701,"Syracuse","NY","Onondaga"
"13252",43.050966,-76.156696,"Syracuse","NY","Onondaga"
"13260",43.02143,-76.197701,"Syracuse","NY","Onondaga"
"13261",43.02143,-76.197701,"Syracuse","NY","Onondaga"
"13290",43.067576,-76.171351,"Syracuse","NY","Onondaga"
"13301",43.419596,-75.224784,"Alder Creek","NY","Oneida"
"13302",43.497512,-75.988154,"Altmar","NY","Oswego"
"13303",43.364242,-75.468514,"Ava","NY","Oneida"
"13304",43.244356,-75.166319,"Barneveld","NY","Oneida"
"13305",43.818705,-75.480342,"Beaver Falls","NY","Lewis"
"13308",43.137703,-75.523266,"Blossvale","NY","Oneida"
"13309",43.23331,-75.294896,"Boonville","NY","Oneida"
"13310",42.930711,-75.560937,"Bouckville","NY","Madison"
"13312",43.818705,-75.480342,"Brantingham","NY","Lewis"
"13313",42.879227,-75.267172,"Bridgewater","NY","Oneida"
"13314",42.954541,-75.616793,"Brookfield","NY","Madison"
"13315",42.734593,-75.133065,"Burlington Flats","NY","Otsego"
"13316",43.285739,-75.626755,"Camden","NY","Oneida"
"13317",42.867146,-74.595636,"Canajoharie","NY","Montgomery"
"13318",42.921786,-75.255163,"Cassville","NY","Oneida"
"13319",43.028469,-75.264008,"Chadwicks","NY","Oneida"
"13320",42.768195,-74.759734,"Cherry Valley","NY","Otsego"
"13321",43.090027,-75.387088,"Clark Mills","NY","Oneida"
"13322",42.961973,-75.233003,"Clayville","NY","Oneida"
"13323",43.036697,-75.382414,"Clinton","NY","Oneida"
"13324",43.271433,-75.04774,"Cold Brook","NY","Herkimer"
"13325",43.56647,-75.425289,"Constableville","NY","Lewis"
"13326",42.714065,-74.890929,"Cooperstown","NY","Otsego"
"13327",43.909848,-75.365264,"Croghan","NY","Lewis"
"13328",42.983981,-75.422034,"Deansboro","NY","Oneida"
"13329",43.18486,-74.941747,"Dolgeville","NY","Herkimer"
"13331",43.816675,-74.886163,"Eagle Bay","NY","Herkimer"
"13332",42.719674,-75.558861,"Earlville","NY","Chenango"
"13333",42.793309,-74.837198,"East Springfield","NY","Otsego"
"13334",42.82982,-75.65364,"Eaton","NY","Madison"
"13335",42.711712,-75.246539,"Edmeston","NY","Otsego"
"13337",42.755679,-74.876761,"Fly Creek","NY","Otsego"
"13338",43.500975,-75.153257,"Forestport","NY","Oneida"
"13339",42.924806,-74.616883,"Fort Plain","NY","Montgomery"
"13340",43.039203,-75.118168,"Frankfort","NY","Herkimer"
"13341",43.036069,-75.396214,"Franklin Springs","NY","Oneida"
"13342",42.63153,-75.186593,"Garrattsville","NY","Otsego"
"13343",43.818705,-75.480342,"Glenfield","NY","Lewis"
"13345",43.818705,-75.480342,"Greig","NY","Lewis"
"13346",42.822667,-75.553153,"Hamilton","NY","Madison"
"13348",42.690531,-75.063513,"Hartwick","NY","Otsego"
"13350",43.026867,-74.933404,"Herkimer","NY","Herkimer"
"13352",43.328187,-75.117319,"Hinckley","NY","Oneida"
"13353",43.667618,-74.456913,"Hoffmeister","NY","Hamilton"
"13354",43.273266,-75.301263,"Holland Patent","NY","Oneida"
"13355",42.817286,-75.422764,"Hubbardsville","NY","Madison"
"13357",43.013625,-74.958226,"Ilion","NY","Herkimer"
"13360",43.667618,-74.456913,"Inlet","NY","Hamilton"
"13361",42.964369,-74.881228,"Jordanville","NY","Herkimer"
"13362",42.980334,-75.518569,"Knoxboro","NY","Oneida"
"13363",43.328374,-75.520067,"Lee Center","NY","Oneida"
"13364",42.954541,-75.616793,"Leonardsville","NY","Madison"
"13365",43.078904,-74.864422,"Little Falls","NY","Herkimer"
"13367",43.789296,-75.415599,"Lowville","NY","Lewis"
"13368",43.621838,-75.365348,"Lyons Falls","NY","Lewis"
"13401",43.267243,-75.688223,"Mc Connellsville","NY","Oneida"
"13402",42.898322,-75.549372,"Madison","NY","Madison"
"13403",43.172019,-75.27371,"Marcy","NY","Oneida"
"13404",43.818705,-75.480342,"Martinsburg","NY","Lewis"
"13406",43.135209,-74.934473,"Middleville","NY","Herkimer"
"13407",43.029258,-75.011662,"Mohawk","NY","Herkimer"
"13408",42.924089,-75.651484,"Morrisville","NY","Madison"
"13409",42.972773,-75.600722,"Munnsville","NY","Madison"
"13410",42.937863,-74.611711,"Nelliston","NY","Montgomery"
"13411",42.631807,-75.385073,"New Berlin","NY","Chenango"
"13413",43.067369,-75.290911,"New Hartford","NY","Oneida"
"13415",42.590419,-75.195695,"New Lisbon","NY","Otsego"
"13416",43.203313,-74.971893,"Newport","NY","Herkimer"
"13417",43.100869,-75.29496,"New York Mills","NY","Oneida"
"13418",42.954541,-75.616793,"North Brookfield","NY","Madison"
"13420",43.752203,-74.873176,"Old Forge","NY","Herkimer"
"13421",43.047755,-75.640944,"Oneida","NY","Madison"
"13424",43.056581,-75.38291,"Oriskany","NY","Oneida"
"13425",42.96965,-75.485421,"Oriskany Falls","NY","Oneida"
"13426",43.562757,-75.996773,"Orwell","NY","Oswego"
"13428",42.926617,-74.54472,"Palatine Bridge","NY","Montgomery"
"13431",43.232502,-75.07288,"Poland","NY","Herkimer"
"13433",43.576823,-75.315816,"Port Leyden","NY","Lewis"
"13435",43.305156,-75.150183,"Prospect","NY","Oneida"
"13436",43.667618,-74.456913,"Raquette Lake","NY","Hamilton"
"13437",43.577131,-75.829419,"Redfield","NY","Oswego"
"13438",43.341666,-75.221046,"Remsen","NY","Oneida"
"13439",42.84018,-74.97159,"Richfield Springs","NY","Otsego"
"13440",43.20886,-75.383365,"Rome","NY","Oneida"
"13441",43.164312,-75.511301,"Rome","NY","Oneida"
"13442",43.239274,-75.47796,"Rome","NY","Oneida"
"13449",43.239274,-75.47796,"Rome","NY","Oneida"
"13450",42.70804,-74.802488,"Roseboom","NY","Otsego"
"13452",42.975134,-74.657384,"Saint Johnsville","NY","Montgomery"
"13454",43.460951,-74.957099,"Salisbury Center","NY","Herkimer"
"13455",42.916235,-75.35448,"Sangerfield","NY","Oneida"
"13456",42.991124,-75.270758,"Sauquoit","NY","Oneida"
"13457",42.775805,-75.048502,"Schuyler Lake","NY","Otsego"
"13459",42.787077,-74.584971,"Sharon Springs","NY","Schoharie"
"13460",42.648204,-75.455824,"Sherburne","NY","Chenango"
"13461",43.074349,-75.580839,"Sherrill","NY","Oneida"
"13464",42.672573,-75.593362,"Smyrna","NY","Chenango"
"13465",42.954541,-75.616793,"Solsville","NY","Madison"
"13468",42.83883,-74.85897,"Springfield Center","NY","Otsego"
"13469",43.219369,-75.299112,"Stittville","NY","Oneida"
"13470",43.190651,-74.650311,"Stratford","NY","Fulton"
"13471",43.228682,-75.591423,"Taberg","NY","Oneida"
"13472",43.460951,-74.957099,"Thendara","NY","Herkimer"
"13473",43.818705,-75.480342,"Turin","NY","Lewis"
"13475",42.893454,-74.836685,"Van Hornesville","NY","Herkimer"
"13476",43.092924,-75.50161,"Vernon","NY","Oneida"
"13477",43.141536,-75.530826,"Vernon Center","NY","Oneida"
"13478",43.146502,-75.586218,"Verona","NY","Oneida"
"13479",43.053769,-75.271559,"Washington Mills","NY","Oneida"
"13480",42.926167,-75.360922,"Waterville","NY","Oneida"
"13482",42.704333,-75.184913,"West Burlington","NY","Otsego"
"13483",43.403751,-75.825528,"Westdale","NY","Oneida"
"13484",42.854631,-75.660462,"West Eaton","NY","Madison"
"13485",42.747058,-75.160928,"West Edmeston","NY","Otsego"
"13486",43.339068,-75.341898,"Westernville","NY","Oneida"
"13488",42.680906,-74.76529,"Westford","NY","Otsego"
"13489",43.44448,-75.543231,"West Leyden","NY","Lewis"
"13490",43.124769,-75.432867,"Westmoreland","NY","Oneida"
"13491",42.909122,-75.12867,"West Winfield","NY","Herkimer"
"13492",43.197827,-75.287643,"Whitesboro","NY","Oneida"
"13493",43.427301,-75.880041,"Williamstown","NY","Oswego"
"13494",43.524904,-75.142771,"Woodgate","NY","Oneida"
"13495",43.102744,-75.321211,"Yorkville","NY","Oneida"
"13501",43.077369,-75.233208,"Utica","NY","Oneida"
"13502",43.150119,-75.192786,"Utica","NY","Oneida"
"13503",43.101869,-75.231158,"Utica","NY","Oneida"
"13504",43.136033,-75.432486,"Utica","NY","Oneida"
"13505",43.087169,-75.260259,"Utica","NY","Oneida"
"13599",43.239274,-75.47796,"Utica","NY","Oneida"
"13601",44.072542,-76.016589,"Watertown","NY","Jefferson"
"13602",44.032457,-75.754468,"Fort Drum","NY","Jefferson"
"13603",43.908739,-75.896719,"Watertown","NY","Jefferson"
"13605",43.960222,-75.905634,"Adams","NY","Jefferson"
"13606",43.831853,-76.007188,"Adams Center","NY","Jefferson"
"13607",44.074604,-75.840719,"Alexandria Bay","NY","Jefferson"
"13608",44.148052,-75.759103,"Antwerp","NY","Jefferson"
"13611",43.778046,-76.125914,"Belleville","NY","Jefferson"
"13612",43.98871,-75.766746,"Black River","NY","Jefferson"
"13613",44.788969,-74.879786,"Brasher Falls","NY","Saint Lawrence"
"13614",44.538648,-75.68666,"Brier Hill","NY","Saint Lawrence"
"13615",44.057685,-76.019634,"Brownville","NY","Jefferson"
"13616",43.951428,-75.860442,"Calcium","NY","Jefferson"
"13617",44.574484,-75.059713,"Canton","NY","Saint Lawrence"
"13618",44.126469,-76.272585,"Cape Vincent","NY","Jefferson"
"13619",44.068221,-75.920097,"Carthage","NY","Jefferson"
"13620",43.818705,-75.480342,"Castorland","NY","Lewis"
"13621",44.845315,-75.047975,"Chase Mills","NY","Saint Lawrence"
"13622",44.091892,-76.108527,"Chaumont","NY","Jefferson"
"13623",44.440171,-75.757938,"Chippewa Bay","NY","Saint Lawrence"
"13624",44.144238,-76.062002,"Clayton","NY","Jefferson"
"13625",44.421607,-75.105077,"Colton","NY","Saint Lawrence"
"13626",43.892324,-75.703596,"Copenhagen","NY","Lewis"
"13627",43.818705,-75.480342,"Deer River","NY","Lewis"
"13628",43.885519,-75.798319,"Deferiet","NY","Jefferson"
"13630",44.462555,-75.30067,"De Kalb Junction","NY","Saint Lawrence"
"13631",43.818705,-75.480342,"Denmark","NY","Lewis"
"13632",44.139501,-76.061552,"Depauville","NY","Jefferson"
"13633",44.49891,-75.477156,"De Peyster","NY","Saint Lawrence"
"13634",44.014261,-76.08002,"Dexter","NY","Jefferson"
"13635",44.523528,-75.160038,"Edwards","NY","Saint Lawrence"
"13636",43.75965,-76.152508,"Ellisburg","NY","Jefferson"
"13637",44.0981,-75.817097,"Evans Mills","NY","Jefferson"
"13638",44.01751,-75.755032,"Felts Mills","NY","Jefferson"
"13639",44.23896,-75.122756,"Fine","NY","Saint Lawrence"
"13640",44.321282,-76.017151,"Wellesley Island","NY","Jefferson"
"13641",44.207681,-75.914556,"Fishers Landing","NY","Jefferson"
"13642",44.550897,-75.237516,"Gouverneur","NY","Saint Lawrence"
"13643",44.014698,-75.728357,"Great Bend","NY","Jefferson"
"13645",44.533125,-75.192865,"Hailesboro","NY","Saint Lawrence"
"13646",44.468,-75.359907,"Hammond","NY","Saint Lawrence"
"13647",44.608735,-74.973218,"Hannawa Falls","NY","Saint Lawrence"
"13648",43.818705,-75.480342,"Harrisville","NY","Lewis"
"13649",44.921678,-74.706763,"Helena","NY","Saint Lawrence"
"13650",43.812653,-76.208109,"Henderson","NY","Jefferson"
"13651",43.870842,-76.180886,"Henderson Harbor","NY","Jefferson"
"13652",44.549025,-75.204351,"Hermon","NY","Saint Lawrence"
"13654",44.616648,-75.185085,"Heuvelton","NY","Saint Lawrence"
"13655",44.980232,-74.647334,"Hogansburg","NY","Franklin"
"13656",44.200392,-75.984109,"La Fargeville","NY","Jefferson"
"13657",44.035703,-76.090424,"Limerick","NY","Jefferson"
"13658",44.516168,-75.21642,"Lisbon","NY","Saint Lawrence"
"13659",43.75037,-75.899974,"Lorraine","NY","Jefferson"
"13660",44.770682,-75.019312,"Madrid","NY","Saint Lawrence"
"13661",43.727352,-76.090851,"Mannsville","NY","Jefferson"
"13662",44.57026,-75.152249,"Massena","NY","Saint Lawrence"
"13664",44.555889,-75.655877,"Morristown","NY","Saint Lawrence"
"13665",44.054012,-75.514487,"Natural Bridge","NY","Jefferson"
"13666",44.533125,-75.192865,"Newton Falls","NY","Saint Lawrence"
"13667",44.855075,-74.942946,"Norfolk","NY","Saint Lawrence"
"13668",44.53517,-75.099289,"Norwood","NY","Saint Lawrence"
"13669",44.509143,-75.249795,"Ogdensburg","NY","Saint Lawrence"
"13670",44.216681,-75.084323,"Oswegatchie","NY","Saint Lawrence"
"13671",44.308475,-75.66879,"Oxbow","NY","Jefferson"
"13672",44.544283,-74.780387,"Parishville","NY","Saint Lawrence"
"13673",44.116323,-75.719346,"Philadelphia","NY","Jefferson"
"13674",43.73345,-76.054313,"Pierrepont Manor","NY","Jefferson"
"13675",44.283403,-75.857026,"Plessis","NY","Jefferson"
"13676",44.539717,-75.142415,"Potsdam","NY","Saint Lawrence"
"13677",44.673438,-75.082041,"Pyrites","NY","Saint Lawrence"
"13678",44.828685,-74.979811,"Raymondville","NY","Saint Lawrence"
"13679",44.327083,-75.80354,"Redwood","NY","Jefferson"
"13680",44.452668,-75.342977,"Rensselaer Falls","NY","Saint Lawrence"
"13681",44.439964,-75.377707,"Richville","NY","Saint Lawrence"
"13682",43.856677,-75.907485,"Rodman","NY","Jefferson"
"13683",44.533125,-75.192865,"Rooseveltown","NY","Saint Lawrence"
"13684",44.382351,-75.104276,"Russell","NY","Saint Lawrence"
"13685",43.872933,-76.092563,"Sackets Harbor","NY","Jefferson"
"13687",44.64472,-74.879155,"South Colton","NY","Saint Lawrence"
"13688",43.951666,-75.767772,"South Rutland","NY","Jefferson"
"13690",44.174001,-74.991929,"Star Lake","NY","Saint Lawrence"
"13691",44.220448,-75.767059,"Theresa","NY","Jefferson"
"13692",44.289833,-76.02621,"Thousand Island Park","NY","Jefferson"
"13693",44.029787,-76.222374,"Three Mile Bay","NY","Jefferson"
"13694",44.550617,-75.194099,"Waddington","NY","Saint Lawrence"
"13695",44.140791,-74.912493,"Wanakena","NY","Saint Lawrence"
"13696",44.69563,-74.89998,"West Stockholm","NY","Saint Lawrence"
"13697",44.642889,-74.840761,"Winthrop","NY","Saint Lawrence"
"13699",44.496564,-75.072951,"Potsdam","NY","Saint Lawrence"
"13730",42.255147,-75.533335,"Afton","NY","Chenango"
"13731",42.12923,-74.843187,"Andes","NY","Delaware"
"13732",42.049798,-76.181009,"Apalachin","NY","Tioga"
"13733",42.295949,-75.507589,"Bainbridge","NY","Chenango"
"13734",42.12518,-76.405626,"Barton","NY","Tioga"
"13736",42.294616,-76.198223,"Berkshire","NY","Tioga"
"13737",42.080494,-76.097288,"Bible School Park","NY","Broome"
"13738",42.567313,-76.123795,"Blodgett Mills","NY","Cortland"
"13739",42.340298,-74.874437,"Bloomville","NY","Delaware"
"13740",42.183045,-74.925617,"Bovina Center","NY","Delaware"
"13743",42.226448,-76.309863,"Candor","NY","Tioga"
"13744",42.243783,-75.90689,"Castle Creek","NY","Broome"
"13745",42.173775,-75.872839,"Chenango Bridge","NY","Broome"
"13746",42.277777,-75.846246,"Chenango Forks","NY","Broome"
"13747",42.505122,-74.982056,"Colliersville","NY","Otsego"
"13748",42.108659,-75.809834,"Conklin","NY","Broome"
"13749",42.206745,-75.74488,"Corbettsville","NY","Broome"
"13750",42.444889,-74.840217,"Davenport","NY","Delaware"
"13751",42.424859,-74.900195,"Davenport Center","NY","Delaware"
"13752",42.220641,-74.916308,"De Lancey","NY","Delaware"
"13753",42.293718,-74.920671,"Delhi","NY","Delaware"
"13754",42.097004,-75.713691,"Deposit","NY","Broome"
"13755",42.035768,-74.900852,"Downsville","NY","Delaware"
"13756",42.003935,-75.122615,"East Branch","NY","Delaware"
"13757",42.350091,-74.977712,"East Meredith","NY","Delaware"
"13758",42.583518,-75.721931,"East Pharsalia","NY","Chenango"
"13760",42.150588,-76.055064,"Endicott","NY","Broome"
"13761",42.206745,-75.74488,"Endicott","NY","Broome"
"13762",42.206745,-75.74488,"Endwell","NY","Broome"
"13763",42.206745,-75.74488,"Endicott","NY","Broome"
"13774",42.183045,-74.925617,"Fishs Eddy","NY","Delaware"
"13775",42.32887,-75.136628,"Franklin","NY","Delaware"
"13776",42.458584,-75.311836,"Gilbertsville","NY","Otsego"
"13777",42.244157,-75.989275,"Glen Aubrey","NY","Broome"
"13778",42.34013,-75.734191,"Greene","NY","Chenango"
"13780",42.365134,-75.611685,"Guilford","NY","Chenango"
"13782",42.192781,-75.012689,"Hamden","NY","Delaware"
"13783",42.115853,-75.028814,"Hancock","NY","Delaware"
"13784",42.431068,-76.159312,"Harford","NY","Cortland"
"13786",42.183045,-74.925617,"Harpersfield","NY","Delaware"
"13787",42.186306,-75.67618,"Harpursville","NY","Broome"
"13788",42.380427,-74.711604,"Hobart","NY","Delaware"
"13790",42.159206,-75.930931,"Johnson City","NY","Broome"
"13794",42.402816,-76.036582,"Killawog","NY","Broome"
"13795",42.056172,-75.788126,"Kirkwood","NY","Broome"
"13796",42.555454,-75.135511,"Laurens","NY","Otsego"
"13797",42.339355,-76.045026,"Lisle","NY","Broome"
"13801",42.49712,-75.731309,"Mc Donough","NY","Chenango"
"13802",42.253754,-76.046399,"Maine","NY","Broome"
"13803",42.497925,-76.047429,"Marathon","NY","Cortland"
"13804",42.183045,-74.925617,"Masonville","NY","Delaware"
"13806",42.183045,-74.925617,"Meridale","NY","Delaware"
"13807",42.601799,-74.975717,"Milford","NY","Otsego"
"13808",42.531661,-75.131023,"Morris","NY","Otsego"
"13809",42.400281,-75.451576,"Mount Upton","NY","Chenango"
"13810",42.610748,-75.102602,"Mount Vision","NY","Otsego"
"13811",42.170428,-76.213825,"Newark Valley","NY","Tioga"
"13812",42.039954,-76.370793,"Nichols","NY","Tioga"
"13813",42.147454,-75.55656,"Nineveh","NY","Broome"
"13814",42.603574,-75.528221,"North Norwich","NY","Chenango"
"13815",42.536226,-75.601779,"Norwich","NY","Chenango"
"13820",42.461688,-75.096727,"Oneonta","NY","Otsego"
"13825",42.441165,-75.148268,"Otego","NY","Otsego"
"13826",42.112127,-75.639586,"Ouaquaga","NY","Broome"
"13827",42.176816,-76.2568,"Owego","NY","Tioga"
"13830",42.437881,-75.567327,"Oxford","NY","Chenango"
"13832",42.568979,-75.654133,"Plymouth","NY","Chenango"
"13833",42.195785,-75.759054,"Port Crane","NY","Broome"
"13834",42.539439,-74.966985,"Portlandville","NY","Otsego"
"13835",42.371552,-76.197488,"Richford","NY","Tioga"
"13837",42.183045,-74.925617,"Shinhopple","NY","Delaware"
"13838",42.308884,-75.391644,"Sidney","NY","Delaware"
"13839",42.217118,-75.232488,"Sidney Center","NY","Delaware"
"13840",42.039512,-76.400376,"Smithboro","NY","Tioga"
"13841",42.461525,-75.632735,"Smithville Flats","NY","Chenango"
"13842",42.183045,-74.925617,"South Kortright","NY","Delaware"
"13843",42.542579,-75.412243,"South New Berlin","NY","Chenango"
"13844",42.624833,-75.652767,"South Plymouth","NY","Chenango"
"13845",42.065842,-76.381946,"Tioga Center","NY","Tioga"
"13846",42.380509,-75.059702,"Treadwell","NY","Delaware"
"13847",42.183045,-74.925617,"Trout Creek","NY","Delaware"
"13848",42.214705,-75.727699,"Tunnel","NY","Broome"
"13849",42.382962,-75.292321,"Unadilla","NY","Otsego"
"13850",42.055476,-76.027088,"Vestal","NY","Broome"
"13851",42.206745,-75.74488,"Vestal","NY","Broome"
"13856",42.250118,-75.125556,"Walton","NY","Delaware"
"13859",42.379383,-75.264556,"Wells Bridge","NY","Otsego"
"13860",42.183045,-74.925617,"West Davenport","NY","Delaware"
"13861",42.501093,-75.140874,"West Oneonta","NY","Otsego"
"13862",42.321825,-75.945183,"Whitney Point","NY","Broome"
"13863",42.449946,-75.924813,"Willet","NY","Cortland"
"13864",42.186744,-76.348074,"Willseyville","NY","Tioga"
"13865",42.069103,-75.644078,"Windsor","NY","Broome"
"13901",42.165629,-75.890685,"Binghamton","NY","Broome"
"13902",42.105375,-75.8876,"Binghamton","NY","Broome"
"13903",42.083005,-75.923248,"Binghamton","NY","Broome"
"13904",42.131088,-75.787801,"Binghamton","NY","Broome"
"13905",42.173709,-75.922159,"Binghamton","NY","Broome"
"14001",43.013808,-78.525296,"Akron","NY","Erie"
"14003",42.998052,-78.184813,"Alabama","NY","Genesee"
"14004",42.872937,-78.528446,"Alden","NY","Erie"
"14005",42.917622,-78.264873,"Alexander","NY","Genesee"
"14006",42.823386,-78.858355,"Angola","NY","Erie"
"14008",43.291696,-78.626944,"Appleton","NY","Niagara"
"14009",42.597171,-78.37463,"Arcade","NY","Wyoming"
"14010",42.768413,-78.887094,"Athol Springs","NY","Erie"
"14011",42.699424,-78.287793,"Attica","NY","Wyoming"
"14012",43.327031,-78.534963,"Barker","NY","Niagara"
"14013",43.077884,-78.394594,"Basom","NY","Genesee"
"14020",42.980544,-78.231764,"Batavia","NY","Genesee"
"14021",42.998052,-78.184813,"Batavia","NY","Genesee"
"14024",42.590046,-78.246616,"Bliss","NY","Wyoming"
"14025",42.625391,-78.726767,"Boston","NY","Erie"
"14026",42.941008,-78.688009,"Bowmansville","NY","Erie"
"14027",42.57075,-79.030785,"Brant","NY","Erie"
"14028",43.313814,-78.736907,"Burt","NY","Niagara"
"14029",42.474283,-78.247413,"Centerville","NY","Allegany"
"14030",42.560669,-78.522178,"Chaffee","NY","Erie"
"14031",42.992968,-78.601269,"Clarence","NY","Erie"
"14032",42.937314,-78.593381,"Clarence Center","NY","Erie"
"14033",42.646441,-78.666272,"Colden","NY","Erie"
"14034",42.668773,-78.816333,"Collins","NY","Erie"
"14035",42.49064,-78.849861,"Collins Center","NY","Erie"
"14036",42.978522,-78.372338,"Corfu","NY","Genesee"
"14037",42.807705,-78.446855,"Cowlesville","NY","Wyoming"
"14038",42.947259,-78.474444,"Crittenden","NY","Erie"
"14039",42.837456,-78.1719,"Dale","NY","Wyoming"
"14040",42.895989,-78.385667,"Darien Center","NY","Genesee"
"14041",42.408583,-78.984391,"Dayton","NY","Cattaraugus"
"14042",42.473934,-78.494065,"Delevan","NY","Cattaraugus"
"14043",42.898958,-78.707872,"Depew","NY","Erie"
"14047",42.683522,-78.995736,"Derby","NY","Erie"
"14048",42.487716,-79.328287,"Dunkirk","NY","Chautauqua"
"14051",43.042907,-78.698796,"East Amherst","NY","Erie"
"14052",42.768209,-78.577136,"East Aurora","NY","Erie"
"14054",42.917037,-78.126525,"East Bethany","NY","Genesee"
"14055",42.559423,-78.621851,"East Concord","NY","Erie"
"14056",42.991173,-78.312171,"East Pembroke","NY","Genesee"
"14057",42.641429,-78.875456,"Eden","NY","Erie"
"14058",43.088434,-78.16261,"Elba","NY","Genesee"
"14059",42.828309,-78.628966,"Elma","NY","Erie"
"14060",42.445698,-78.341227,"Farmersville Station","NY","Cattaraugus"
"14061",42.594627,-79.08404,"Farnham","NY","Erie"
"14062",42.441146,-79.172343,"Forestville","NY","Chautauqua"
"14063",42.412217,-79.319254,"Fredonia","NY","Chautauqua"
"14065",42.475344,-78.370334,"Freedom","NY","Cattaraugus"
"14066",42.629014,-78.19448,"Gainesville","NY","Wyoming"
"14067",43.208166,-78.56623,"Gasport","NY","Niagara"
"14068",43.026737,-78.762454,"Getzville","NY","Erie"
"14069",42.610187,-78.639976,"Glenwood","NY","Erie"
"14070",42.41994,-78.954628,"Gowanda","NY","Cattaraugus"
"14072",43.015256,-78.958945,"Grand Island","NY","Erie"
"14075",42.729083,-78.837596,"Hamburg","NY","Erie"
"14080",42.640179,-78.543738,"Holland","NY","Erie"
"14081",42.543516,-79.101301,"Irving","NY","Chautauqua"
"14082",42.65161,-78.387099,"Java Center","NY","Wyoming"
"14083",42.675193,-78.436442,"Java Village","NY","Wyoming"
"14085",42.716055,-78.929357,"Lake View","NY","Erie"
"14086",42.907658,-78.632137,"Lancaster","NY","Erie"
"14091",42.54386,-78.94475,"Lawtons","NY","Erie"
"14092",43.170805,-78.989515,"Lewiston","NY","Niagara"
"14094",43.168463,-78.706886,"Lockport","NY","Niagara"
"14095",43.32684,-78.830681,"Lockport","NY","Niagara"
"14098",43.324031,-78.367151,"Lyndonville","NY","Orleans"
"14101",42.38917,-78.554217,"Machias","NY","Cattaraugus"
"14102",42.851099,-78.547172,"Marilla","NY","Erie"
"14103",43.239442,-78.359871,"Medina","NY","Orleans"
"14105",43.196947,-78.502849,"Middleport","NY","Niagara"
"14107",43.32684,-78.830681,"Model City","NY","Niagara"
"14108",43.271156,-78.724806,"Newfane","NY","Niagara"
"14109",43.32684,-78.830681,"Niagara University","NY","Niagara"
"14110",42.768413,-78.887094,"North Boston","NY","Erie"
"14111",42.583165,-78.91888,"North Collins","NY","Erie"
"14112",42.691742,-78.992658,"North Evans","NY","Erie"
"14113",42.656199,-78.340092,"North Java","NY","Wyoming"
"14120",43.179206,-78.808908,"North Tonawanda","NY","Niagara"
"14125",43.087438,-78.269677,"Oakfield","NY","Genesee"
"14126",43.330443,-78.726661,"Olcott","NY","Niagara"
"14127",42.742541,-78.704437,"Orchard Park","NY","Erie"
"14129",42.472671,-79.007621,"Perrysburg","NY","Cattaraugus"
"14130",42.543108,-78.153849,"Pike","NY","Wyoming"
"14131",43.233055,-78.906562,"Ransomville","NY","Niagara"
"14132",43.153105,-78.885611,"Sanborn","NY","Niagara"
"14133",42.489129,-78.366991,"Sandusky","NY","Cattaraugus"
"14134",42.532281,-78.517233,"Sardinia","NY","Erie"
"14135",42.488983,-79.238997,"Sheridan","NY","Chautauqua"
"14136",42.520038,-79.207843,"Silver Creek","NY","Chautauqua"
"14138",42.374077,-78.94643,"South Dayton","NY","Cattaraugus"
"14139",42.716759,-78.543478,"South Wales","NY","Erie"
"14140",42.807159,-78.667599,"Spring Brook","NY","Erie"
"14141",42.538335,-78.685169,"Springville","NY","Erie"
"14143",42.975195,-78.069868,"Stafford","NY","Genesee"
"14144",43.199494,-79.042477,"Stella Niagara","NY","Niagara"
"14145",42.733778,-78.423303,"Strykersville","NY","Wyoming"
"14150",42.99704,-78.878659,"Tonawanda","NY","Erie"
"14151",42.768413,-78.887094,"Tonawanda","NY","Erie"
"14166",42.4511,-79.415421,"Van Buren Point","NY","Chautauqua"
"14167",42.738977,-78.312478,"Varysburg","NY","Wyoming"
"14168",42.509271,-78.999471,"Versailles","NY","Cattaraugus"
"14169",42.767333,-78.585646,"Wales Center","NY","Erie"
"14170",42.702797,-78.670098,"West Falls","NY","Erie"
"14171",42.406409,-78.639581,"West Valley","NY","Cattaraugus"
"14172",43.272729,-78.83101,"Wilson","NY","Niagara"
"14173",42.524691,-78.475474,"Yorkshire","NY","Cattaraugus"
"14174",43.244454,-78.988325,"Youngstown","NY","Niagara"
"14201",42.929303,-78.832706,"Buffalo","NY","Erie"
"14202",42.889662,-78.884157,"Buffalo","NY","Erie"
"14203",42.868057,-78.867906,"Buffalo","NY","Erie"
"14204",42.882957,-78.864898,"Buffalo","NY","Erie"
"14205",42.768413,-78.887094,"Buffalo","NY","Erie"
"14206",42.881012,-78.814555,"Buffalo","NY","Erie"
"14207",42.949557,-78.897009,"Buffalo","NY","Erie"
"14208",42.916107,-78.858157,"Buffalo","NY","Erie"
"14209",42.918107,-78.865857,"Buffalo","NY","Erie"
"14210",42.863608,-78.825755,"Buffalo","NY","Erie"
"14211",42.912257,-78.819005,"Buffalo","NY","Erie"
"14212",42.894558,-78.818805,"Buffalo","NY","Erie"
"14213",42.918057,-78.891108,"Buffalo","NY","Erie"
"14214",42.940107,-78.835256,"Buffalo","NY","Erie"
"14215",42.932957,-78.812252,"Buffalo","NY","Erie"
"14216",42.946407,-78.860407,"Buffalo","NY","Erie"
"14217",42.900044,-78.808205,"Buffalo","NY","Erie"
"14218",42.814558,-78.807754,"Buffalo","NY","Erie"
"14219",42.786308,-78.826444,"Buffalo","NY","Erie"
"14220",42.845908,-78.823005,"Buffalo","NY","Erie"
"14221",42.968507,-78.749153,"Buffalo","NY","Erie"
"14222",42.918207,-78.875007,"Buffalo","NY","Erie"
"14223",42.974607,-78.850507,"Buffalo","NY","Erie"
"14224",42.837128,-78.748352,"Buffalo","NY","Erie"
"14225",42.925458,-78.748145,"Buffalo","NY","Erie"
"14226",42.974389,-78.794905,"Buffalo","NY","Erie"
"14227",42.885308,-78.746202,"Buffalo","NY","Erie"
"14228",43.026016,-78.766073,"Buffalo","NY","Erie"
"14231",42.768413,-78.887094,"Buffalo","NY","Erie"
"14233",42.768413,-78.887094,"Buffalo","NY","Erie"
"14240",42.768413,-78.887094,"Buffalo","NY","Erie"
"14241",42.938258,-78.744053,"Buffalo","NY","Erie"
"14260",42.768413,-78.887094,"Buffalo","NY","Erie"
"14261",42.768413,-78.887094,"Buffalo","NY","Erie"
"14263",42.768413,-78.887094,"Buffalo","NY","Erie"
"14264",42.885568,-78.873479,"Buffalo","NY","Erie"
"14265",42.768413,-78.887094,"Buffalo","NY","Erie"
"14267",42.768413,-78.887094,"Buffalo","NY","Erie"
"14269",42.768413,-78.887094,"Buffalo","NY","Erie"
"14270",42.768413,-78.887094,"Buffalo","NY","Erie"
"14272",42.768413,-78.887094,"Buffalo","NY","Erie"
"14273",42.75495,-78.784908,"Buffalo","NY","Erie"
"14276",42.768413,-78.887094,"Buffalo","NY","Erie"
"14280",42.768413,-78.887094,"Buffalo","NY","Erie"
"14301",43.089805,-79.009414,"Niagara Falls","NY","Niagara"
"14302",43.32684,-78.830681,"Niagara Falls","NY","Niagara"
"14303",43.086455,-79.037965,"Niagara Falls","NY","Niagara"
"14304",43.100305,-78.952112,"Niagara Falls","NY","Niagara"
"14305",43.117255,-79.018415,"Niagara Falls","NY","Niagara"
"14410",43.195261,-77.855883,"Adams Basin","NY","Monroe"
"14411",43.235143,-78.194251,"Albion","NY","Orleans"
"14413",43.222735,-76.982149,"Alton","NY","Wayne"
"14414",42.895631,-77.735104,"Avon","NY","Livingston"
"14415",42.754115,-77.026379,"Bellona","NY","Yates"
"14416",43.073792,-78.019684,"Bergen","NY","Genesee"
"14418",42.622634,-77.227187,"Branchport","NY","Yates"
"14420",43.223303,-77.917335,"Brockport","NY","Monroe"
"14422",43.073142,-78.056938,"Byron","NY","Genesee"
"14423",42.935329,-77.838998,"Caledonia","NY","Livingston"
"14424",42.813576,-77.289687,"Canandaigua","NY","Ontario"
"14425",42.958041,-77.308256,"Farmington","NY","Ontario"
"14427",42.62674,-78.059147,"Castile","NY","Wyoming"
"14428",43.074911,-77.835003,"Churchville","NY","Monroe"
"14429",43.381027,-78.231338,"Clarendon","NY","Orleans"
"14430",43.286024,-77.684264,"Clarkson","NY","Monroe"
"14432",42.962932,-77.150097,"Clifton Springs","NY","Ontario"
"14433",43.097869,-76.872736,"Clyde","NY","Wayne"
"14435",42.723231,-77.668291,"Conesus","NY","Livingston"
"14437",42.61837,-77.737515,"Dansville","NY","Livingston"
"14441",42.722446,-76.963823,"Dresden","NY","Yates"
"14443",42.900966,-77.42331,"East Bloomfield","NY","Ontario"
"14445",43.113563,-77.482538,"East Rochester","NY","Monroe"
"14449",43.235369,-77.137642,"East Williamson","NY","Wayne"
"14450",43.104287,-77.428964,"Fairport","NY","Monroe"
"14452",43.381027,-78.231338,"Fancher","NY","Orleans"
"14453",43.010908,-77.47054,"Fishers","NY","Ontario"
"14454",42.783801,-77.777872,"Geneseo","NY","Livingston"
"14456",42.857414,-77.034883,"Geneva","NY","Ontario"
"14461",42.808127,-77.287611,"Gorham","NY","Ontario"
"14462",42.694819,-77.754628,"Groveland","NY","Livingston"
"14463",42.796578,-77.063876,"Hall","NY","Ontario"
"14464",43.321659,-77.925097,"Hamlin","NY","Monroe"
"14466",42.78481,-77.618049,"Hemlock","NY","Livingston"
"14467",43.058863,-77.558902,"Henrietta","NY","Monroe"
"14468",43.28521,-77.832333,"Hilton","NY","Monroe"
"14469",42.869556,-77.465843,"Bloomfield","NY","Ontario"
"14470",43.21586,-78.073057,"Holley","NY","Orleans"
"14471",42.755573,-77.491905,"Honeoye","NY","Ontario"
"14472",42.982513,-77.606771,"Honeoye Falls","NY","Monroe"
"14475",42.935868,-77.498231,"Ionia","NY","Ontario"
"14476",43.324058,-78.049928,"Kendall","NY","Orleans"
"14477",43.330763,-78.123328,"Kent","NY","Orleans"
"14478",42.570794,-77.12259,"Keuka Park","NY","Yates"
"14479",43.241502,-78.318828,"Knowlesville","NY","Orleans"
"14480",42.837288,-77.703091,"Lakeville","NY","Livingston"
"14481",42.760644,-77.90355,"Leicester","NY","Livingston"
"14482",42.95619,-77.989988,"Le Roy","NY","Genesee"
"14485",42.889864,-77.608688,"Lima","NY","Livingston"
"14486",42.915297,-77.949818,"Linwood","NY","Genesee"
"14487",42.809457,-77.650938,"Livonia","NY","Livingston"
"14488",42.729839,-77.773919,"Livonia Center","NY","Livingston"
"14489",43.099263,-76.970937,"Lyons","NY","Wayne"
"14502",43.110807,-77.31345,"Macedon","NY","Wayne"
"14504",42.968903,-77.233194,"Manchester","NY","Ontario"
"14505",43.15594,-77.172684,"Marion","NY","Wayne"
"14506",43.001323,-77.504268,"Mendon","NY","Monroe"
"14507",42.686845,-77.262987,"Middlesex","NY","Yates"
"14508",43.381027,-78.231338,"Morton","NY","Orleans"
"14510",42.683466,-77.866402,"Mount Morris","NY","Livingston"
"14511",43.002612,-77.86458,"Mumford","NY","Monroe"
"14512",42.667802,-77.413496,"Naples","NY","Ontario"
"14513",43.087067,-77.097867,"Newark","NY","Wayne"
"14514",43.085778,-77.805628,"North Chili","NY","Monroe"
"14515",43.257819,-77.735079,"North Greece","NY","Monroe"
"14516",43.195842,-76.908805,"North Rose","NY","Wayne"
"14517",42.591883,-77.894474,"Nunda","NY","Livingston"
"14518",42.931873,-77.011839,"Oaks Corners","NY","Ontario"
"14519",43.221476,-77.308614,"Ontario","NY","Wayne"
"14520",43.348369,-77.045288,"Ontario Center","NY","Wayne"
"14521",42.689791,-76.794102,"Ovid","NY","Seneca"
"14522",43.081306,-77.218849,"Palmyra","NY","Wayne"
"14525",42.910203,-78.026899,"Pavilion","NY","Genesee"
"14526",43.145813,-77.454446,"Penfield","NY","Monroe"
"14527",42.637423,-77.069925,"Penn Yan","NY","Yates"
"14529",42.535363,-77.628857,"Perkinsville","NY","Steuben"
"14530",42.682391,-78.056235,"Perry","NY","Wyoming"
"14532",42.963394,-77.043612,"Phelps","NY","Ontario"
"14533",42.843464,-77.896153,"Piffard","NY","Livingston"
"14534",43.060229,-77.520692,"Pittsford","NY","Monroe"
"14536",42.555988,-78.098906,"Portageville","NY","Wyoming"
"14537",43.033002,-77.157465,"Port Gibson","NY","Ontario"
"14538",43.283582,-77.142027,"Pultneyville","NY","Wayne"
"14539",42.834327,-77.877876,"Retsof","NY","Livingston"
"14541",42.749713,-76.844921,"Romulus","NY","Seneca"
"14542",43.144795,-76.860779,"Rose","NY","Wayne"
"14543",42.996613,-77.666524,"Rush","NY","Monroe"
"14544",42.734157,-77.242693,"Rushville","NY","Yates"
"14545",42.652111,-77.710539,"Scottsburg","NY","Livingston"
"14546",43.04471,-77.772652,"Scottsville","NY","Monroe"
"14547",42.808127,-77.287611,"Seneca Castle","NY","Ontario"
"14548",42.978834,-77.252696,"Shortsville","NY","Ontario"
"14549",42.692874,-78.022364,"Silver Lake","NY","Wyoming"
"14550",42.674209,-78.084485,"Silver Springs","NY","Wyoming"
"14551",43.210384,-77.053517,"Sodus","NY","Wayne"
"14555",43.254644,-76.983518,"Sodus Point","NY","Wayne"
"14556",42.729839,-77.773919,"Sonyea","NY","Livingston"
"14557",43.041606,-78.057252,"South Byron","NY","Genesee"
"14558",42.855409,-77.687643,"South Lima","NY","Livingston"
"14559",43.185709,-77.830577,"Spencerport","NY","Monroe"
"14560",42.635525,-77.594478,"Springwater","NY","Livingston"
"14561",42.83336,-77.129398,"Stanley","NY","Ontario"
"14563",43.348369,-77.045288,"Union Hill","NY","Wayne"
"14564",42.973715,-77.426906,"Victor","NY","Ontario"
"14568",43.142795,-77.287414,"Walworth","NY","Wayne"
"14569",42.740223,-78.164804,"Warsaw","NY","Wyoming"
"14571",43.328706,-78.238501,"Waterport","NY","Orleans"
"14572",42.516793,-77.564247,"Wayland","NY","Steuben"
"14580",43.21821,-77.454075,"Webster","NY","Monroe"
"14585",42.905459,-77.548423,"West Bloomfield","NY","Ontario"
"14586",43.041553,-77.683575,"West Henrietta","NY","Monroe"
"14588",42.683451,-76.872442,"Willard","NY","Seneca"
"14589",43.23941,-77.163811,"Williamson","NY","Wayne"
"14590",43.224693,-76.840547,"Wolcott","NY","Wayne"
"14591",42.818578,-78.102549,"Wyoming","NY","Wyoming"
"14592",42.875685,-77.883511,"York","NY","Livingston"
"14601",43.286024,-77.684264,"Rochester","NY","Monroe"
"14602",43.286024,-77.684264,"Rochester","NY","Monroe"
"14603",43.161613,-77.606774,"Rochester","NY","Monroe"
"14604",43.156612,-77.604023,"Rochester","NY","Monroe"
"14605",43.166313,-77.602973,"Rochester","NY","Monroe"
"14606",43.173612,-77.691577,"Rochester","NY","Monroe"
"14607",43.152013,-77.584888,"Rochester","NY","Monroe"
"14608",43.154611,-77.624001,"Rochester","NY","Monroe"
"14609",43.198197,-77.549971,"Rochester","NY","Monroe"
"14610",43.140163,-77.557871,"Rochester","NY","Monroe"
"14611",43.140163,-77.650275,"Rochester","NY","Monroe"
"14612",43.257111,-77.67824,"Rochester","NY","Monroe"
"14613",43.13378,-77.519325,"Rochester","NY","Monroe"
"14614",43.104463,-77.512569,"Rochester","NY","Monroe"
"14615",43.22252,-77.552021,"Rochester","NY","Monroe"
"14616",43.228955,-77.680927,"Rochester","NY","Monroe"
"14617",43.207062,-77.609425,"Rochester","NY","Monroe"
"14618",43.112163,-77.561771,"Rochester","NY","Monroe"
"14619",43.135688,-77.649126,"Rochester","NY","Monroe"
"14620",43.129862,-77.618523,"Rochester","NY","Monroe"
"14621",43.149013,-77.631124,"Rochester","NY","Monroe"
"14622",43.199613,-77.595823,"Rochester","NY","Monroe"
"14623",43.082184,-77.649074,"Rochester","NY","Monroe"
"14624",43.121612,-77.731127,"Rochester","NY","Monroe"
"14625",43.152213,-77.505705,"Rochester","NY","Monroe"
"14626",43.190312,-77.720018,"Rochester","NY","Monroe"
"14627",43.127513,-77.627674,"Rochester","NY","Monroe"
"14638",43.286024,-77.684264,"Rochester","NY","Monroe"
"14639",43.286024,-77.684264,"Rochester","NY","Monroe"
"14642",43.286024,-77.684264,"Rochester","NY","Monroe"
"14643",43.286024,-77.684264,"Rochester","NY","Monroe"
"14644",43.286024,-77.684264,"Rochester","NY","Monroe"
"14645",43.286024,-77.684264,"Rochester","NY","Monroe"
"14646",43.286024,-77.684264,"Rochester","NY","Monroe"
"14647",43.286024,-77.684264,"Rochester","NY","Monroe"
"14649",43.286024,-77.684264,"Rochester","NY","Monroe"
"14650",43.286024,-77.684264,"Rochester","NY","Monroe"
"14651",43.286024,-77.684264,"Rochester","NY","Monroe"
"14652",43.286024,-77.684264,"Rochester","NY","Monroe"
"14653",43.286024,-77.684264,"Rochester","NY","Monroe"
"14660",43.286024,-77.684264,"Rochester","NY","Monroe"
"14664",43.286024,-77.684264,"Rochester","NY","Monroe"
"14673",43.286024,-77.684264,"Rochester","NY","Monroe"
"14683",43.286024,-77.684264,"Rochester","NY","Monroe"
"14692",43.286024,-77.684264,"Rochester","NY","Monroe"
"14694",43.286024,-77.684264,"Rochester","NY","Monroe"
"14701",42.196125,-79.432256,"Jamestown","NY","Chautauqua"
"14702",42.081657,-79.294921,"Jamestown","NY","Chautauqua"
"14703",42.342529,-79.41091,"Jamestown","NY","Chautauqua"
"14704",42.342529,-79.41091,"Jamestown","NY","Chautauqua"
"14706",42.116168,-78.516218,"Allegany","NY","Cattaraugus"
"14707",42.073739,-78.059374,"Allentown","NY","Allegany"
"14708",42.025431,-78.084837,"Alma","NY","Allegany"
"14709",42.217609,-78.090559,"Angelica","NY","Allegany"
"14710",42.084481,-79.391738,"Ashville","NY","Chautauqua"
"14711",42.320366,-78.12964,"Belfast","NY","Allegany"
"14712",42.164572,-79.445292,"Bemus Point","NY","Chautauqua"
"14714",42.290569,-78.237314,"Black Creek","NY","Allegany"
"14715",42.154417,-78.139391,"Bolivar","NY","Allegany"
"14716",42.316748,-79.432622,"Brocton","NY","Chautauqua"
"14717",42.257674,-78.174601,"Caneadea","NY","Allegany"
"14718",42.250021,-79.296028,"Cassadaga","NY","Chautauqua"
"14719",42.343336,-78.869752,"Cattaraugus","NY","Cattaraugus"
"14720",42.105907,-79.27912,"Celoron","NY","Chautauqua"
"14721",42.013691,-78.264775,"Ceres","NY","Allegany"
"14722",42.187468,-79.450523,"Chautauqua","NY","Chautauqua"
"14723",42.308946,-79.387594,"Cherry Creek","NY","Chautauqua"
"14724",42.07268,-79.644932,"Clymer","NY","Chautauqua"
"14726",42.252473,-79.008294,"Conewango Valley","NY","Cattaraugus"
"14727",42.245997,-78.209403,"Cuba","NY","Allegany"
"14728",42.2828,-79.366516,"Dewittville","NY","Chautauqua"
"14729",42.405354,-78.735158,"East Otto","NY","Cattaraugus"
"14730",42.174736,-78.94734,"East Randolph","NY","Cattaraugus"
"14731",42.297229,-78.649654,"Ellicottville","NY","Cattaraugus"
"14732",42.229098,-79.11347,"Ellington","NY","Chautauqua"
"14733",42.126604,-79.182837,"Falconer","NY","Chautauqua"
"14735",42.45079,-78.104285,"Fillmore","NY","Allegany"
"14736",42.133206,-79.737701,"Findley Lake","NY","Chautauqua"
"14737",42.335753,-78.491244,"Franklinville","NY","Cattaraugus"
"14738",42.053586,-79.118889,"Frewsburg","NY","Chautauqua"
"14739",42.187901,-78.157246,"Friendship","NY","Allegany"
"14740",42.21129,-79.170519,"Gerry","NY","Chautauqua"
"14741",42.21704,-78.584117,"Great Valley","NY","Cattaraugus"
"14742",42.120512,-79.30958,"Greenhurst","NY","Chautauqua"
"14743",42.197916,-78.415859,"Hinsdale","NY","Cattaraugus"
"14744",42.422827,-78.206289,"Houghton","NY","Allegany"
"14745",42.4777,-78.140343,"Hume","NY","Allegany"
"14747",42.152725,-79.111065,"Kennedy","NY","Chautauqua"
"14748",42.144977,-78.646626,"Kill Buck","NY","Cattaraugus"
"14750",42.12481,-79.440009,"Lakewood","NY","Chautauqua"
"14751",42.298328,-79.006231,"Leon","NY","Cattaraugus"
"14752",42.352416,-79.323502,"Lily Dale","NY","Chautauqua"
"14753",42.141266,-78.607674,"Limestone","NY","Cattaraugus"
"14754",42.031872,-78.209708,"Little Genesee","NY","Allegany"
"14755",42.254567,-78.823628,"Little Valley","NY","Cattaraugus"
"14756",42.19815,-79.417353,"Maple Springs","NY","Chautauqua"
"14757",42.23716,-79.370911,"Mayville","NY","Chautauqua"
"14758",42.342529,-79.41091,"Niobe","NY","Chautauqua"
"14760",42.082142,-78.425973,"Olean","NY","Cattaraugus"
"14766",42.357543,-78.807283,"Otto","NY","Cattaraugus"
"14767",42.191346,-79.505101,"Panama","NY","Chautauqua"
"14769",42.371561,-79.468963,"Portland","NY","Chautauqua"
"14770",42.092944,-78.342341,"Portville","NY","Cattaraugus"
"14772",42.156841,-78.844412,"Randolph","NY","Cattaraugus"
"14774",42.114385,-78.168055,"Richburg","NY","Allegany"
"14775",42.230461,-79.42678,"Ripley","NY","Chautauqua"
"14777",42.397363,-78.23233,"Rushford","NY","Allegany"
"14778",42.270112,-78.684684,"Saint Bonaventure","NY","Cattaraugus"
"14779",42.180526,-78.615625,"Salamanca","NY","Cattaraugus"
"14781",42.172076,-79.611348,"Sherman","NY","Chautauqua"
"14782",42.257762,-79.253829,"Sinclairville","NY","Chautauqua"
"14783",42.082001,-78.917738,"Steamburg","NY","Cattaraugus"
"14784",42.31514,-79.38833,"Stockton","NY","Chautauqua"
"14785",42.155693,-79.412233,"Stow","NY","Chautauqua"
"14786",42.12267,-78.221332,"West Clarksville","NY","Allegany"
"14787",42.253734,-79.484286,"Westfield","NY","Chautauqua"
"14788",42.062125,-78.377974,"Westons Mills","NY","Cattaraugus"
"14801",42.206391,-77.306185,"Addison","NY","Steuben"
"14802",42.240535,-77.783192,"Alfred","NY","Allegany"
"14803",42.254097,-77.799317,"Alfred Station","NY","Allegany"
"14804",42.313285,-77.851286,"Almond","NY","Allegany"
"14805",42.375566,-76.732706,"Alpine","NY","Schuyler"
"14806",42.145794,-77.811901,"Andover","NY","Allegany"
"14807",42.465145,-77.57387,"Arkport","NY","Steuben"
"14808",42.562012,-77.468518,"Atlanta","NY","Steuben"
"14809",42.367861,-77.464128,"Avoca","NY","Steuben"
"14810",42.357464,-77.302789,"Bath","NY","Steuben"
"14812",42.322924,-76.977336,"Beaver Dams","NY","Schuyler"
"14813",42.242168,-77.963148,"Belmont","NY","Allegany"
"14814",42.156516,-76.93164,"Big Flats","NY","Chemung"
"14815",42.369808,-77.235796,"Bradford","NY","Steuben"
"14816",42.199631,-76.7312,"Breesport","NY","Chemung"
"14817",42.359694,-76.349154,"Brooktondale","NY","Tompkins"
"14818",42.464152,-76.798018,"Burdett","NY","Schuyler"
"14819",42.211491,-77.453509,"Cameron","NY","Steuben"
"14820",42.180046,-77.280502,"Cameron Mills","NY","Steuben"
"14821",42.262954,-77.215478,"Campbell","NY","Steuben"
"14822",42.422577,-77.835626,"Canaseraga","NY","Allegany"
"14823",42.348146,-77.42713,"Canisteo","NY","Steuben"
"14824",42.272948,-76.693628,"Cayuta","NY","Schuyler"
"14825",42.052426,-76.607029,"Chemung","NY","Chemung"
"14826",42.470356,-77.391286,"Cohocton","NY","Steuben"
"14827",42.178527,-77.141357,"Coopers Plains","NY","Steuben"
"14830",42.120541,-77.048462,"Corning","NY","Steuben"
"14831",42.145265,-77.56683,"Corning","NY","Steuben"
"14836",42.546164,-77.90021,"Dalton","NY","Livingston"
"14837",42.555387,-77.014409,"Dundee","NY","Yates"
"14838",42.181224,-76.671949,"Erin","NY","Chemung"
"14839",42.143242,-77.562991,"Greenwood","NY","Steuben"
"14840",42.322455,-77.198396,"Hammondsport","NY","Steuben"
"14841",42.492291,-76.824556,"Hector","NY","Schuyler"
"14842",42.577714,-76.96452,"Himrod","NY","Yates"
"14843",42.383978,-77.479051,"Hornell","NY","Steuben"
"14844",42.160717,-76.878456,"Horseheads","NY","Chemung"
"14845",42.21003,-76.836629,"Horseheads","NY","Chemung"
"14846",42.555834,-77.999451,"Hunt","NY","Livingston"
"14847",42.60844,-76.735556,"Interlaken","NY","Seneca"
"14850",42.402794,-76.483999,"Ithaca","NY","Tompkins"
"14851",42.460721,-76.505435,"Ithaca","NY","Tompkins"
"14852",42.445074,-76.467233,"Ithaca","NY","Tompkins"
"14853",42.447373,-76.483703,"Ithaca","NY","Tompkins"
"14854",42.50632,-76.608222,"Jacksonville","NY","Tompkins"
"14855",42.142197,-77.497908,"Jasper","NY","Steuben"
"14856",42.374218,-77.364812,"Kanona","NY","Steuben"
"14857",42.512632,-76.927019,"Lakemont","NY","Yates"
"14858",42.04507,-77.106679,"Lindley","NY","Steuben"
"14859",42.115457,-76.507823,"Lockwood","NY","Tioga"
"14860",42.586029,-76.801671,"Lodi","NY","Seneca"
"14861",42.087671,-76.684615,"Lowman","NY","Chemung"
"14863",42.451569,-76.706717,"Mecklenburg","NY","Schuyler"
"14864",42.259644,-76.842298,"Millport","NY","Chemung"
"14865",42.358866,-76.841852,"Montour Falls","NY","Schuyler"
"14867",42.365688,-76.610212,"Newfield","NY","Tompkins"
"14869",42.377454,-76.77621,"Odessa","NY","Schuyler"
"14870",42.159759,-77.382462,"Painted Post","NY","Steuben"
"14871",42.047024,-76.882455,"Pine City","NY","Chemung"
"14872",42.240529,-76.875072,"Pine Valley","NY","Chemung"
"14873",42.38056,-77.354408,"Prattsburgh","NY","Steuben"
"14874",42.520261,-77.197141,"Pulteney","NY","Steuben"
"14876",42.429721,-76.925846,"Reading Center","NY","Schuyler"
"14877",42.071887,-77.677653,"Rexville","NY","Steuben"
"14878",42.48015,-76.946931,"Rock Stream","NY","Yates"
"14879",42.327262,-77.193204,"Savona","NY","Steuben"
"14880",42.16615,-77.965672,"Scio","NY","Allegany"
"14881",42.402463,-76.360782,"Slaterville Springs","NY","Tompkins"
"14882",42.573453,-76.552378,"Lansing","NY","Tompkins"
"14883",42.203102,-76.471165,"Spencer","NY","Tioga"
"14884",42.455859,-77.889425,"Swain","NY","Allegany"
"14885",42.060366,-77.562142,"Troupsburg","NY","Steuben"
"14886",42.4803,-76.635158,"Trumansburg","NY","Tompkins"
"14887",42.399371,-77.026768,"Tyrone","NY","Schuyler"
"14889",42.210223,-76.585084,"Van Etten","NY","Chemung"
"14891",42.37285,-76.927135,"Watkins Glen","NY","Schuyler"
"14892",42.107825,-76.502218,"Waverly","NY","Tioga"
"14893",42.474143,-77.097713,"Wayne","NY","Schuyler"
"14894",42.027102,-76.764516,"Wellsburg","NY","Chemung"
"14895",42.230956,-77.917245,"Wellsville","NY","Allegany"
"14897",42.050965,-77.821349,"Whitesville","NY","Allegany"
"14898",42.069469,-77.438058,"Woodhull","NY","Steuben"
"14901",42.082585,-76.71857,"Elmira","NY","Chemung"
"14902",42.147285,-76.750888,"Elmira","NY","Chemung"
"14903",42.119824,-76.887659,"Elmira","NY","Chemung"
"14904",42.061824,-76.823678,"Elmira","NY","Chemung"
"14905",42.093574,-76.844329,"Elmira","NY","Chemung"
"14925",42.147285,-76.750888,"Elmira","NY","Chemung"
